; Generated by Sketch DSL for Machine
; Work area: 420mm x 297mm (A3)
G21
G90
M5
G4 P0.5
G0 F11000
; 411 paths
; Path 1
G0 X1.912 Y2.974
G0 Z2.2
G1 F3000
G1 X2.451 Y3.613
; Path 2
G0 Z0
G0 X6.703 Y2.382
G0 Z2.2
G1 F3000
G1 X6.486 Y2.598
G1 X6.270 Y2.382
G1 X6.486 Y2.166
G1 X6.703 Y2.382
; Path 3
G0 Z0
G0 X9.728 Y6.700
G0 Z2.2
G1 F3000
G1 X9.512 Y6.484
G1 X9.296 Y6.700
G1 X9.512 Y6.917
G1 X9.728 Y6.700
; Path 4
G0 Z0
G0 X14.144 Y10.030
G0 Z2.2
G1 F3000
G1 X13.583 Y9.414
; Path 5
G0 Z0
G0 X15.453 Y6.920
G0 Z2.2
G1 F3000
G1 X14.739 Y6.413
; Path 6
G0 Z0
G0 X12.582 Y4.215
G0 Z2.2
G1 F3000
G1 X11.718 Y4.100
; Path 7
G0 Z0
G0 X13.189 Y1.085
G0 Z2.2
G1 F3000
G1 X12.973 Y1.301
G1 X12.757 Y1.085
G1 X12.973 Y0.869
G1 X13.189 Y1.085
; Path 8
G0 Z0
G0 X16.658 Y2.382
G0 Z2.2
G1 F3000
G1 X16.442 Y2.598
G1 X16.226 Y2.382
G1 X16.442 Y2.165
G1 X16.658 Y2.382
; Path 9
G0 Z0
G0 X17.790 Y0.914
G0 Z2.2
G1 F3000
G1 X18.541 Y1.338
; Path 10
G0 Z0
G0 X19.676 Y4.112
G0 Z2.2
G1 F3000
G1 X19.459 Y4.328
G1 X19.243 Y4.112
G1 X19.459 Y3.896
G1 X19.676 Y4.112
; Path 11
G0 Z0
G0 X20.391 Y5.104
G0 Z2.2
G1 F3000
G1 X21.053 Y5.691
; Path 12
G0 Z0
G0 X22.809 Y3.481
G0 Z2.2
G1 F3000
G1 X22.094 Y2.976
; Path 13
G0 Z0
G0 X24.004 Y1.083
G0 Z2.2
G1 F3000
G1 X23.788 Y1.299
G1 X23.572 Y1.083
G1 X23.788 Y0.867
G1 X24.004 Y1.083
; Path 14
G0 Z0
G0 X25.690 Y11.552
G0 Z2.2
G1 F3000
G1 X26.171 Y12.308
; Path 15
G0 Z0
G0 X26.604 Y12.356
G0 Z2.2
G1 F3000
G1 X27.045 Y13.112
; Path 16
G0 Z0
G0 X26.820 Y12.773
G0 Z2.2
G1 F3000
G1 X26.384 Y12.026
G1 X25.941 Y11.292
G1 X25.513 Y10.542
G1 X25.077 Y9.788
G1 X24.632 Y9.062
G1 X24.205 Y8.298
G1 X23.774 Y7.563
; Path 17
G0 Z0
G0 X23.787 Y7.558
G0 Z2.2
G1 F3000
G1 X23.422 Y8.273
G1 X23.051 Y8.997
G1 X22.695 Y9.710
G1 X22.345 Y10.438
G1 X21.964 Y11.176
G1 X21.609 Y11.886
; Path 18
G0 Z0
G0 X17.621 Y16.829
G0 Z2.2
G1 F3000
G1 X16.948 Y17.366
; Path 19
G0 Z0
G0 X15.135 Y18.382
G0 Z2.2
G1 F3000
G1 X23.784 Y7.571
; Path 20
G1 X32.432 Y18.382
; Path 21
G0 Z0
G0 X30.657 Y22.506
G0 Z2.2
G1 F3000
G1 X29.900 Y22.922
; Path 22
G0 Z0
G0 X24.151 Y27.132
G0 Z2.2
G1 F3000
G1 X23.340 Y26.955
; Path 23
G0 Z0
G0 X21.031 Y28.653
G0 Z2.2
G1 F3000
G1 X20.414 Y28.068
; Path 24
G0 Z0
G0 X17.103 Y29.552
G0 Z2.2
G1 F3000
G1 X16.626 Y28.822
; Path 25
G0 Z0
G0 X17.549 Y31.670
G0 Z2.2
G1 F3000
G1 X16.963 Y30.961
; Path 26
G0 Z0
G0 X17.291 Y30.488
G0 Z2.2
G1 F3000
G1 X16.762 Y29.837
G1 X16.206 Y29.196
G1 X15.661 Y28.548
G1 X15.131 Y27.887
; Path 27
G0 Z0
G0 X15.138 Y27.902
G0 Z2.2
G1 F3000
G1 X14.586 Y28.550
G1 X14.067 Y29.186
G1 X13.521 Y29.842
G1 X12.979 Y30.488
; Path 28
G0 Z0
G0 X13.271 Y31.014
G0 Z2.2
G1 F3000
G1 X12.740 Y31.717
; Path 29
G0 Z0
G0 X13.503 Y31.638
G0 Z2.2
G1 F3000
G1 X14.110 Y31.057
; Path 30
G0 Z0
G0 X13.154 Y29.544
G0 Z2.2
G1 F3000
G1 X13.613 Y28.817
; Path 31
G0 Z0
G0 X13.415 Y27.894
G0 Z2.2
G1 F3000
G1 X13.832 Y27.343
G1 X14.272 Y26.822
G1 X14.684 Y26.263
G1 X15.123 Y25.732
; Path 32
G0 Z0
G0 X15.127 Y25.736
G0 Z2.2
G1 F3000
G1 X15.558 Y26.276
G1 X15.989 Y26.808
G1 X16.439 Y27.356
G1 X16.866 Y27.887
; Path 33
G0 Z0
G0 X16.437 Y25.743
G0 Z2.2
G1 F3000
G1 X15.995 Y25.172
G1 X15.573 Y24.574
G1 X15.131 Y24.004
; Path 34
G0 Z0
G0 X13.840 Y25.735
G0 Z2.2
G1 F3000
G1 X14.267 Y25.153
G1 X14.715 Y24.563
G1 X15.135 Y23.991
; Path 35
G0 Z0
G0 X15.148 Y22.702
G0 Z2.2
G1 F3000
G1 X15.145 Y23.519
G1 X15.133 Y24.335
G1 X15.147 Y25.141
G1 X15.135 Y25.944
G1 X15.136 Y26.760
G1 X15.144 Y27.584
G1 X15.134 Y28.380
G1 X15.147 Y29.190
G1 X15.136 Y29.995
G1 X15.147 Y30.827
G1 X15.129 Y31.620
G1 X15.122 Y32.452
G1 X15.138 Y33.251
G1 X15.135 Y34.076
G1 X15.133 Y34.878
G1 X15.128 Y35.689
; Path 36
G0 Z0
G0 X16.040 Y36.811
G0 Z2.2
G1 F3000
G1 X16.811 Y37.191
; Path 37
G0 Z0
G0 X18.597 Y35.691
G0 Z2.2
G1 F3000
G1 X17.914 Y35.426
G1 X17.204 Y35.155
G1 X16.520 Y34.891
G1 X15.832 Y34.636
G1 X15.145 Y34.371
; Path 38
G0 Z0
G0 X15.135 Y34.381
G0 Z2.2
G1 F3000
G1 X14.447 Y34.650
G1 X13.752 Y34.890
G1 X13.057 Y35.143
G1 X12.373 Y35.419
G1 X11.678 Y35.668
; Path 39
G0 Z0
G0 X10.804 Y35.682
G0 Z2.2
G1 F3000
G1 X10.091 Y35.322
G1 X9.366 Y34.975
G1 X8.638 Y34.595
G1 X7.920 Y34.257
G1 X7.209 Y33.876
G1 X6.480 Y33.528
; Path 40
G0 Z0
G0 X6.491 Y33.514
G0 Z2.2
G1 F3000
G1 X5.771 Y33.883
G1 X5.035 Y34.232
G1 X4.315 Y34.599
G1 X3.603 Y34.955
G1 X2.873 Y35.316
G1 X2.160 Y35.683
; Path 41
G0 Z0
G0 X2.606 Y34.386
G0 Z2.2
G1 F3000
G1 X3.242 Y33.886
G1 X3.911 Y33.367
G1 X4.550 Y32.870
G1 X5.182 Y32.357
G1 X5.854 Y31.858
G1 X6.489 Y31.345
; Path 42
G0 Z0
G0 X6.496 Y31.352
G0 Z2.2
G1 F3000
G1 X7.145 Y31.847
G1 X7.793 Y32.350
G1 X8.441 Y32.860
G1 X9.098 Y33.361
G1 X9.737 Y33.885
G1 X10.386 Y34.380
; Path 43
G0 Z0
G0 X8.957 Y32.506
G0 Z2.2
G1 F3000
G1 X8.331 Y31.920
; Path 44
G0 Z0
G0 X8.476 Y30.427
G0 Z2.2
G1 F3000
G1 X7.953 Y29.783
; Path 45
G0 Z0
G0 X9.090 Y27.888
G0 Z2.2
G1 F3000
G1 X8.574 Y27.277
G1 X8.052 Y26.689
G1 X7.539 Y26.079
G1 X7.012 Y25.483
G1 X6.495 Y24.876
; Path 46
G0 Z0
G0 X6.478 Y24.875
G0 Z2.2
G1 F3000
G1 X5.947 Y25.474
G1 X5.430 Y26.073
G1 X4.916 Y26.695
G1 X4.393 Y27.296
G1 X3.880 Y27.900
; Path 47
G0 Z0
G0 X4.323 Y25.304
G0 Z2.2
G1 F3000
G1 X4.850 Y24.662
G1 X5.407 Y24.001
G1 X5.950 Y23.367
G1 X6.481 Y22.715
; Path 48
G0 Z0
G0 X6.478 Y22.704
G0 Z2.2
G1 F3000
G1 X7.017 Y23.353
G1 X7.577 Y23.987
G1 X8.109 Y24.642
G1 X8.654 Y25.289
; Path 49
G0 Z0
G0 X7.999 Y25.216
G0 Z2.2
G1 F3000
G1 X7.563 Y24.537
; Path 50
G0 Z0
G0 X7.782 Y22.702
G0 Z2.2
G1 F3000
G1 X7.358 Y22.281
G1 X6.905 Y21.846
G1 X6.480 Y21.402
; Path 51
G0 Z0
G0 X6.488 Y21.414
G0 Z2.2
G1 F3000
G1 X6.061 Y21.852
G1 X5.607 Y22.273
G1 X5.177 Y22.705
; Path 52
G0 Z0
G0 X8.023 Y28.219
G0 Z2.2
G1 F3000
G1 X7.503 Y27.574
; Path 53
G0 Z0
G0 X5.453 Y27.545
G0 Z2.2
G1 F3000
G1 X4.969 Y28.276
; Path 54
G0 Z0
G0 X5.036 Y29.668
G0 Z2.2
G1 F3000
G1 X4.469 Y30.359
; Path 55
G0 Z0
G0 X3.450 Y30.502
G0 Z2.2
G1 F3000
G1 X3.951 Y29.930
G1 X4.469 Y29.337
G1 X4.959 Y28.759
G1 X5.472 Y28.180
G1 X5.976 Y27.613
G1 X6.476 Y27.038
; Path 56
G0 Z0
G0 X6.475 Y27.039
G0 Z2.2
G1 F3000
G1 X6.969 Y27.601
G1 X7.501 Y28.183
G1 X8.006 Y28.758
G1 X8.507 Y29.333
G1 X9.021 Y29.920
G1 X9.517 Y30.486
; Path 57
G0 Z0
G0 X10.816 Y30.059
G0 Z2.2
G1 F3000
G1 X10.808 Y30.875
G1 X10.813 Y31.707
G1 X10.824 Y32.546
G1 X10.817 Y33.387
G1 X10.807 Y34.205
G1 X10.823 Y35.037
G1 X10.824 Y35.868
G1 X10.819 Y36.685
G1 X10.820 Y37.520
G1 X10.819 Y38.337
G1 X10.824 Y39.165
G1 X10.815 Y40.005
; Path 58
G0 Z0
G0 X13.827 Y40.005
G0 Z2.2
G1 F3000
G1 X13.068 Y39.687
G1 X12.318 Y39.351
G1 X11.554 Y39.030
G1 X10.805 Y38.709
; Path 59
G0 Z0
G0 X10.809 Y38.718
G0 Z2.2
G1 F3000
G1 X10.042 Y39.052
G1 X9.308 Y39.375
G1 X8.534 Y39.690
G1 X7.788 Y40.010
; Path 60
G0 Z0
G0 X9.890 Y39.734
G0 Z2.2
G1 F3000
G1 X9.163 Y40.176
; Path 61
G0 Z0
G0 X8.225 Y38.710
G0 Z2.2
G1 F3000
G1 X8.870 Y38.161
G1 X9.508 Y37.630
G1 X10.160 Y37.082
G1 X10.817 Y36.542
; Path 62
G0 Z0
G0 X10.802 Y36.541
G0 Z2.2
G1 F3000
G1 X11.446 Y37.074
G1 X12.119 Y37.611
G1 X12.751 Y38.157
G1 X13.413 Y38.695
; Path 63
G0 Z0
G0 X12.977 Y36.545
G0 Z2.2
G1 F3000
G1 X12.431 Y36.010
G1 X11.905 Y35.469
G1 X11.358 Y34.944
G1 X10.817 Y34.394
; Path 64
G0 Z0
G0 X10.798 Y34.391
G0 Z2.2
G1 F3000
G1 X10.261 Y34.925
G1 X9.731 Y35.459
G1 X9.168 Y36.002
G1 X8.638 Y36.551
; Path 65
G0 Z0
G0 X9.093 Y34.393
G0 Z2.2
G1 F3000
G1 X9.513 Y33.845
G1 X9.939 Y33.318
G1 X10.364 Y32.765
G1 X10.800 Y32.228
; Path 66
G0 Z0
G0 X10.817 Y32.227
G0 Z2.2
G1 F3000
G1 X11.243 Y32.770
G1 X11.689 Y33.314
G1 X12.100 Y33.862
G1 X12.537 Y34.393
; Path 67
G0 Z0
G0 X12.117 Y34.386
G0 Z2.2
G1 F3000
G1 X12.720 Y33.960
G1 X13.328 Y33.528
G1 X13.918 Y33.090
G1 X14.534 Y32.657
G1 X15.132 Y32.211
; Path 68
G0 Z0
G0 X15.125 Y32.221
G0 Z2.2
G1 F3000
G1 X15.721 Y32.643
G1 X16.344 Y33.070
G1 X16.956 Y33.506
G1 X17.557 Y33.943
G1 X18.157 Y34.376
; Path 69
G0 Z0
G0 X17.724 Y32.642
G0 Z2.2
G1 F3000
G1 X17.215 Y32.121
G1 X16.678 Y31.602
G1 X16.166 Y31.090
G1 X15.651 Y30.574
G1 X15.133 Y30.046
; Path 70
G0 Z0
G0 X15.146 Y30.062
G0 Z2.2
G1 F3000
G1 X14.638 Y30.570
G1 X14.100 Y31.087
G1 X13.596 Y31.615
G1 X13.081 Y32.139
G1 X12.553 Y32.652
; Path 71
G0 Z0
G0 X11.666 Y32.220
G0 Z2.2
G1 F3000
G1 X11.235 Y31.578
G1 X10.802 Y30.911
; Path 72
G0 Z0
G0 X10.799 Y30.911
G0 Z2.2
G1 F3000
G1 X10.368 Y31.580
G1 X9.941 Y32.232
; Path 73
G0 Z0
G0 X9.955 Y32.641
G0 Z2.2
G1 F3000
G1 X9.386 Y32.081
G1 X8.803 Y31.501
G1 X8.211 Y30.917
G1 X7.630 Y30.360
G1 X7.067 Y29.777
G1 X6.485 Y29.204
; Path 74
G0 Z0
G0 X6.487 Y29.194
G0 Z2.2
G1 F3000
G1 X5.916 Y29.775
G1 X5.334 Y30.356
G1 X4.750 Y30.926
G1 X4.175 Y31.506
G1 X3.584 Y32.080
G1 X3.014 Y32.644
; Path 75
G0 Z0
G0 X2.482 Y33.249
G0 Z2.2
G1 F3000
G1 X1.880 Y33.846
; Path 76
G0 Z0
G0 X4.013 Y32.493
G0 Z2.2
G1 F3000
G1 X4.589 Y31.879
; Path 77
G0 Z0
G0 X6.497 Y35.678
G0 Z2.2
G1 F3000
G1 X6.502 Y34.845
G1 X6.500 Y33.997
G1 X6.485 Y33.160
G1 X6.487 Y32.328
G1 X6.499 Y31.472
G1 X6.506 Y30.625
G1 X6.504 Y29.794
G1 X6.484 Y28.953
G1 X6.491 Y28.105
G1 X6.500 Y27.265
G1 X6.496 Y26.419
G1 X6.489 Y25.578
G1 X6.495 Y24.755
G1 X6.483 Y23.911
G1 X6.503 Y23.056
G1 X6.492 Y22.237
G1 X6.499 Y21.385
G1 X6.494 Y20.543
; Path 78
G0 Z0
G0 X5.189 Y19.684
G0 Z2.2
G1 F3000
G1 X5.181 Y18.930
G1 X5.203 Y18.203
G1 X5.202 Y17.454
G1 X5.189 Y16.721
G1 X5.184 Y15.957
G1 X5.190 Y15.216
G1 X5.197 Y14.481
; Path 79
G0 Z0
G0 X4.038 Y14.367
G0 Z2.2
G1 F3000
G1 X4.572 Y13.697
; Path 80
G0 Z0
G0 X1.519 Y10.069
G0 Z2.2
G1 F3000
G1 X1.030 Y9.360
; Path 81
G0 Z0
G0 X3.687 Y5.405
G0 Z2.2
G1 F3000
G1 X3.470 Y5.621
G1 X3.254 Y5.405
G1 X3.470 Y5.189
G1 X3.687 Y5.405
; Path 82
G0 Z0
G0 X4.718 Y8.467
G0 Z2.2
G1 F3000
G1 X5.581 Y8.476
; Path 83
G0 Z0
G0 X7.412 Y11.244
G0 Z2.2
G1 F3000
G1 X8.136 Y10.794
; Path 84
G0 Z0
G0 X8.650 Y16.213
G0 Z2.2
G1 F3000
G1 X8.641 Y16.899
G1 X8.663 Y17.603
G1 X8.664 Y18.302
G1 X8.644 Y18.984
G1 X8.652 Y19.683
; Path 85
G0 Z0
G0 X11.056 Y20.906
G0 Z2.2
G1 F3000
G1 X10.598 Y20.147
; Path 86
G0 Z0
G0 X9.937 Y19.672
G0 Z2.2
G1 F3000
G1 X9.510 Y19.249
G1 X9.085 Y18.825
G1 X8.643 Y18.386
; Path 87
G0 Z0
G0 X9.514 Y17.957
G0 Z2.2
G1 F3000
G1 X9.069 Y17.530
G1 X8.643 Y17.079
; Path 88
G0 Z0
G0 X8.644 Y17.081
G0 Z2.2
G1 F3000
G1 X8.219 Y17.526
G1 X7.771 Y17.954
; Path 89
G0 Z0
G0 X8.642 Y18.379
G0 Z2.2
G1 F3000
G1 X8.221 Y18.814
G1 X7.786 Y19.235
G1 X7.349 Y19.674
; Path 90
G0 Z0
G0 X6.909 Y19.674
G0 Z2.2
G1 F3000
G1 X6.347 Y19.099
G1 X5.759 Y18.532
G1 X5.188 Y17.958
; Path 91
G0 Z0
G0 X5.195 Y17.960
G0 Z2.2
G1 F3000
G1 X4.607 Y18.524
G1 X4.037 Y19.108
G1 X3.461 Y19.689
; Path 92
G0 Z0
G0 X2.171 Y19.682
G0 Z2.2
G1 F3000
G1 X2.166 Y18.954
G1 X2.166 Y18.224
G1 X2.165 Y17.513
G1 X2.149 Y16.801
G1 X2.153 Y16.063
G1 X2.151 Y15.343
; Path 93
G0 Z0
G0 X2.152 Y16.215
G0 Z2.2
G1 F3000
G1 X1.732 Y16.652
G1 X1.287 Y17.073
; Path 94
G0 Z0
G0 X2.163 Y16.217
G0 Z2.2
G1 F3000
G1 X2.590 Y16.655
G1 X3.021 Y17.083
; Path 95
G0 Z0
G0 X4.312 Y16.227
G0 Z2.2
G1 F3000
G1 X4.759 Y15.789
G1 X5.188 Y15.366
; Path 96
G0 Z0
G0 X5.185 Y15.362
G0 Z2.2
G1 F3000
G1 X5.618 Y15.796
G1 X6.049 Y16.211
; Path 97
G0 Z0
G0 X6.483 Y17.951
G0 Z2.2
G1 F3000
G1 X6.061 Y17.509
G1 X5.631 Y17.076
G1 X5.202 Y16.654
; Path 98
G0 Z0
G0 X5.186 Y16.663
G0 Z2.2
G1 F3000
G1 X4.746 Y17.083
G1 X4.321 Y17.504
G1 X3.901 Y17.939
; Path 99
G0 Z0
G0 X3.463 Y18.388
G0 Z2.2
G1 F3000
G1 X3.033 Y17.950
G1 X2.606 Y17.528
G1 X2.168 Y17.089
; Path 100
G0 Z0
G0 X2.164 Y17.084
G0 Z2.2
G1 F3000
G1 X1.733 Y17.524
G1 X1.297 Y17.962
G1 X0.860 Y18.393
; Path 101
G0 Z0
G0 X0.000 Y18.382
G0 Z2.2
G1 F3000
G1 X10.811 Y5.409
; Path 102
G1 X21.622 Y18.382
; Path 103
G0 Z0
G0 X23.784 Y18.382
G0 Z2.2
G1 F3000
G1 X36.757 Y2.382
; Path 104
G1 X49.730 Y18.382
; Path 105
G0 Z0
G0 X48.855 Y19.268
G0 Z2.2
G1 F3000
G1 X48.003 Y19.199
; Path 106
G0 Z0
G0 X47.543 Y18.381
G0 Z2.2
G1 F3000
G1 X47.471 Y18.343
G1 X47.421 Y18.225
G1 X47.410 Y18.165
G1 X47.362 Y18.082
G1 X47.292 Y17.992
G1 X47.239 Y17.945
G1 X47.167 Y17.837
G1 X47.101 Y17.815
G1 X47.053 Y17.723
G1 X47.023 Y17.671
G1 X46.922 Y17.560
G1 X46.875 Y17.502
G1 X46.818 Y17.426
G1 X46.751 Y17.391
G1 X46.727 Y17.285
G1 X46.684 Y17.243
G1 X46.646 Y17.165
G1 X46.631 Y17.073
G1 X46.622 Y16.992
G1 X46.646 Y16.958
G1 X46.612 Y16.869
G1 X46.632 Y16.802
G1 X46.686 Y16.745
G1 X46.691 Y16.676
G1 X46.724 Y16.595
G1 X46.840 Y16.526
G1 X46.884 Y16.495
G1 X46.961 Y16.434
G1 X47.090 Y16.415
G1 X47.175 Y16.325
G1 X47.286 Y16.272
G1 X47.398 Y16.204
G1 X47.541 Y16.163
G1 X47.706 Y16.107
G1 X47.802 Y16.061
G1 X47.961 Y16.006
G1 X48.079 Y15.938
G1 X48.257 Y15.911
G1 X48.411 Y15.853
G1 X48.570 Y15.782
G1 X48.732 Y15.743
G1 X48.869 Y15.701
G1 X48.985 Y15.622
G1 X49.149 Y15.606
G1 X49.311 Y15.547
G1 X49.445 Y15.471
G1 X49.593 Y15.431
G1 X49.716 Y15.388
; Path 107
G0 Z0
G0 X49.759 Y15.359
G0 Z2.2
G1 F3000
G1 X49.721 Y15.308
G1 X49.626 Y15.192
G1 X49.569 Y15.142
G1 X49.490 Y15.071
G1 X49.448 Y14.985
G1 X49.342 Y14.925
G1 X49.264 Y14.819
G1 X49.183 Y14.778
G1 X49.099 Y14.708
G1 X49.035 Y14.604
G1 X48.935 Y14.562
G1 X48.864 Y14.491
G1 X48.805 Y14.402
G1 X48.720 Y14.356
G1 X48.659 Y14.274
G1 X48.604 Y14.168
G1 X48.542 Y14.134
G1 X48.507 Y14.057
G1 X48.483 Y13.954
G1 X48.445 Y13.916
G1 X48.431 Y13.839
G1 X48.415 Y13.744
G1 X48.475 Y13.669
G1 X48.453 Y13.621
G1 X48.468 Y13.527
G1 X48.516 Y13.506
G1 X48.588 Y13.403
G1 X48.636 Y13.326
G1 X48.712 Y13.254
G1 X48.822 Y13.185
G1 X48.951 Y13.103
G1 X49.056 Y13.042
G1 X49.131 Y12.966
G1 X49.238 Y12.874
G1 X49.406 Y12.845
G1 X49.493 Y12.747
G1 X49.631 Y12.696
G1 X49.770 Y12.599
G1 X49.886 Y12.528
G1 X49.990 Y12.442
G1 X50.126 Y12.395
G1 X50.285 Y12.309
G1 X50.402 Y12.242
G1 X50.556 Y12.197
G1 X50.670 Y12.090
G1 X50.796 Y11.992
G1 X50.879 Y11.955
G1 X51.017 Y11.871
; Path 108
G0 Z0
G0 X51.034 Y11.907
G0 Z2.2
G1 F3000
G1 X51.471 Y11.155
G1 X51.895 Y10.426
G1 X52.319 Y9.679
G1 X52.750 Y8.922
G1 X53.196 Y8.188
G1 X53.621 Y7.441
G1 X54.045 Y6.700
; Path 109
G0 Z0
G0 X54.049 Y6.717
G0 Z2.2
G1 F3000
G1 X54.480 Y7.330
G1 X54.920 Y7.938
G1 X55.333 Y8.555
G1 X55.768 Y9.193
G1 X56.204 Y9.809
G1 X56.625 Y10.417
G1 X57.068 Y11.029
; Path 110
G0 Z0
G0 X55.358 Y12.070
G0 Z2.2
G1 F3000
G1 X54.517 Y11.756
; Path 111
G0 Z0
G0 X54.463 Y11.159
G0 Z2.2
G1 F3000
G1 X53.659 Y10.889
; Path 112
G0 Z0
G0 X44.120 Y11.032
G0 Z2.2
G1 F3000
G1 X44.214 Y11.100
G1 X44.345 Y11.106
G1 X44.469 Y11.188
G1 X44.585 Y11.243
G1 X44.735 Y11.275
G1 X44.852 Y11.339
G1 X44.998 Y11.416
G1 X45.111 Y11.444
G1 X45.249 Y11.488
G1 X45.405 Y11.506
G1 X45.536 Y11.574
G1 X45.639 Y11.638
G1 X45.743 Y11.715
G1 X45.857 Y11.736
G1 X46.002 Y11.792
G1 X46.082 Y11.824
G1 X46.223 Y11.894
G1 X46.317 Y11.953
G1 X46.379 Y12.040
G1 X46.451 Y12.073
G1 X46.564 Y12.124
G1 X46.600 Y12.168
G1 X46.703 Y12.271
G1 X46.723 Y12.307
G1 X46.714 Y12.342
G1 X46.756 Y12.436
G1 X46.780 Y12.505
G1 X46.782 Y12.573
G1 X46.766 Y12.632
G1 X46.748 Y12.716
G1 X46.726 Y12.780
G1 X46.648 Y12.849
G1 X46.649 Y12.937
G1 X46.594 Y13.001
G1 X46.522 Y13.092
G1 X46.502 Y13.164
G1 X46.432 Y13.274
G1 X46.411 Y13.343
G1 X46.328 Y13.396
G1 X46.252 Y13.444
G1 X46.220 Y13.534
G1 X46.147 Y13.629
G1 X46.087 Y13.675
G1 X46.048 Y13.763
G1 X45.980 Y13.859
G1 X45.933 Y13.919
G1 X45.864 Y13.996
G1 X45.846 Y14.085
; Path 113
G0 Z0
G0 X43.234 Y15.343
G0 Z2.2
G1 F3000
G1 X42.529 Y14.923
G1 X41.791 Y14.475
G1 X41.089 Y14.051
; Path 114
G0 Z0
G0 X41.083 Y11.031
G0 Z2.2
G1 F3000
G1 X40.538 Y10.372
G1 X40.010 Y9.725
G1 X39.474 Y9.090
G1 X38.922 Y8.429
; Path 115
G0 Z0
G0 X36.748 Y5.418
G0 Z2.2
G1 F3000
G1 X36.203 Y5.951
G1 X35.656 Y6.502
G1 X35.130 Y7.052
G1 X34.587 Y7.584
; Path 116
G0 Z0
G0 X39.781 Y7.560
G0 Z2.2
G1 F3000
G1 X39.349 Y6.811
G1 X38.912 Y6.093
G1 X38.482 Y5.337
G1 X38.061 Y4.608
G1 X37.626 Y3.866
G1 X37.204 Y3.125
G1 X36.764 Y2.386
; Path 117
G0 Z0
G0 X36.747 Y2.390
G0 Z2.2
G1 F3000
G1 X36.378 Y3.135
G1 X35.982 Y3.912
G1 X35.623 Y4.653
G1 X35.239 Y5.405
G1 X34.871 Y6.175
G1 X34.485 Y6.917
G1 X34.103 Y7.681
G1 X33.728 Y8.439
; Path 118
G0 Z0
G0 X32.428 Y9.730
G0 Z2.2
G1 F3000
G1 X31.884 Y10.280
G1 X31.355 Y10.812
G1 X30.820 Y11.351
G1 X30.277 Y11.894
; Path 119
G0 Z0
G0 X34.599 Y12.774
G0 Z2.2
G1 F3000
G1 X33.875 Y13.191
G1 X33.139 Y13.623
G1 X32.422 Y14.048
; Path 120
G0 Z0
G0 X36.423 Y18.675
G0 Z2.2
G1 F3000
G1 X37.079 Y18.092
; Path 121
G0 Z0
G0 X39.816 Y21.861
G0 Z2.2
G1 F3000
G1 X39.737 Y21.965
G1 X39.635 Y22.005
G1 X39.594 Y22.072
G1 X39.497 Y22.148
G1 X39.424 Y22.191
G1 X39.367 Y22.278
G1 X39.316 Y22.376
G1 X39.202 Y22.425
G1 X39.138 Y22.482
G1 X39.032 Y22.520
G1 X38.977 Y22.595
G1 X38.911 Y22.688
G1 X38.853 Y22.784
G1 X38.727 Y22.811
G1 X38.687 Y22.896
G1 X38.636 Y22.956
G1 X38.529 Y23.018
G1 X38.469 Y23.112
G1 X38.407 Y23.154
G1 X38.351 Y23.294
G1 X38.260 Y23.337
G1 X38.226 Y23.423
G1 X38.140 Y23.479
G1 X38.063 Y23.573
G1 X38.028 Y23.689
G1 X37.956 Y23.751
G1 X37.880 Y23.824
G1 X37.820 Y23.905
G1 X37.773 Y23.994
G1 X37.708 Y24.087
G1 X37.662 Y24.145
G1 X37.568 Y24.247
G1 X37.546 Y24.359
G1 X37.471 Y24.431
G1 X37.408 Y24.537
G1 X37.389 Y24.638
G1 X37.373 Y24.725
G1 X37.294 Y24.847
G1 X37.237 Y24.920
G1 X37.183 Y25.023
G1 X37.155 Y25.121
G1 X37.085 Y25.203
G1 X37.025 Y25.283
G1 X36.996 Y25.367
G1 X36.932 Y25.485
G1 X36.887 Y25.603
G1 X36.816 Y25.668
G1 X36.773 Y25.761
; Path 122
G0 Z0
G0 X36.783 Y25.736
G0 Z2.2
G1 F3000
G1 X36.627 Y25.865
G1 X36.473 Y25.993
G1 X36.343 Y26.168
G1 X36.184 Y26.316
G1 X36.048 Y26.483
G1 X35.897 Y26.600
G1 X35.735 Y26.779
G1 X35.620 Y26.915
G1 X35.449 Y27.032
G1 X35.273 Y27.146
G1 X35.166 Y27.331
G1 X35.003 Y27.464
G1 X34.838 Y27.609
G1 X34.720 Y27.741
G1 X34.560 Y27.897
G1 X34.420 Y28.039
G1 X34.259 Y28.179
G1 X34.124 Y28.329
G1 X33.966 Y28.490
G1 X33.840 Y28.638
G1 X33.698 Y28.762
G1 X33.571 Y28.933
G1 X33.404 Y29.050
G1 X33.285 Y29.195
G1 X33.161 Y29.308
G1 X33.047 Y29.518
G1 X32.886 Y29.628
G1 X32.786 Y29.770
G1 X32.607 Y29.948
G1 X32.500 Y30.062
G1 X32.345 Y30.236
G1 X32.227 Y30.375
G1 X32.123 Y30.496
G1 X31.991 Y30.635
G1 X31.878 Y30.786
G1 X31.754 Y30.930
G1 X31.646 Y31.068
G1 X31.494 Y31.243
G1 X31.388 Y31.364
G1 X31.268 Y31.540
G1 X31.131 Y31.651
G1 X31.023 Y31.799
G1 X30.927 Y31.963
G1 X30.769 Y32.106
G1 X30.657 Y32.233
G1 X30.562 Y32.371
G1 X30.377 Y32.510
G1 X30.285 Y32.667
; Path 123
G0 Z0
G0 X30.237 Y32.669
G0 Z2.2
G1 F3000
G1 X30.096 Y32.814
G1 X29.925 Y32.944
G1 X29.805 Y33.041
G1 X29.674 Y33.176
G1 X29.483 Y33.273
G1 X29.369 Y33.405
G1 X29.240 Y33.504
G1 X29.048 Y33.612
G1 X28.931 Y33.766
G1 X28.819 Y33.892
G1 X28.657 Y34.024
G1 X28.494 Y34.128
G1 X28.337 Y34.281
G1 X28.215 Y34.388
G1 X28.060 Y34.498
G1 X27.920 Y34.606
G1 X27.792 Y34.758
G1 X27.632 Y34.878
G1 X27.479 Y34.997
G1 X27.349 Y35.119
G1 X27.213 Y35.276
G1 X27.104 Y35.408
G1 X26.932 Y35.560
G1 X26.805 Y35.695
G1 X26.654 Y35.874
G1 X26.522 Y36.018
G1 X26.409 Y36.140
G1 X26.299 Y36.326
G1 X26.181 Y36.451
G1 X26.025 Y36.606
G1 X25.904 Y36.749
G1 X25.752 Y36.913
G1 X25.649 Y37.089
G1 X25.551 Y37.271
G1 X25.406 Y37.392
G1 X25.279 Y37.584
G1 X25.178 Y37.730
G1 X25.067 Y37.944
G1 X24.912 Y38.085
G1 X24.761 Y38.234
G1 X24.670 Y38.394
G1 X24.547 Y38.589
G1 X24.435 Y38.726
G1 X24.281 Y38.907
G1 X24.179 Y39.088
G1 X24.031 Y39.269
G1 X23.905 Y39.426
G1 X23.807 Y39.580
; Path 124
G0 Z0
G0 X26.213 Y36.663
G0 Z2.2
G1 F3000
G1 X25.729 Y37.310
; Path 125
G0 Z0
G0 X26.376 Y39.138
G0 Z2.2
G1 F3000
G1 X26.841 Y38.413
G1 X27.292 Y37.706
G1 X27.756 Y36.983
G1 X28.230 Y36.267
G1 X28.676 Y35.532
G1 X29.151 Y34.814
G1 X29.609 Y34.097
G1 X30.069 Y33.373
G1 X30.531 Y32.661
G1 X30.986 Y31.931
G1 X31.438 Y31.208
G1 X31.923 Y30.483
G1 X32.377 Y29.775
G1 X32.842 Y29.046
G1 X33.296 Y28.333
; Path 126
G0 Z0
G0 X34.379 Y28.717
G0 Z2.2
G1 F3000
G1 X34.803 Y28.007
; Path 127
G0 Z0
G0 X34.583 Y28.320
G0 Z2.2
G1 F3000
G1 X34.118 Y29.043
G1 X33.665 Y29.762
G1 X33.200 Y30.479
G1 X32.746 Y31.206
G1 X32.276 Y31.925
G1 X31.818 Y32.639
G1 X31.345 Y33.372
G1 X30.891 Y34.089
G1 X30.428 Y34.818
G1 X29.967 Y35.527
G1 X29.515 Y36.252
G1 X29.041 Y36.968
G1 X28.585 Y37.706
G1 X28.126 Y38.430
G1 X27.670 Y39.142
; Path 128
G0 Z0
G0 X28.970 Y39.126
G0 Z2.2
G1 F3000
G1 X29.426 Y38.419
G1 X29.896 Y37.687
G1 X30.350 Y36.977
G1 X30.813 Y36.259
G1 X31.287 Y35.538
G1 X31.731 Y34.813
G1 X32.192 Y34.104
G1 X32.674 Y33.381
G1 X33.133 Y32.666
G1 X33.584 Y31.931
G1 X34.035 Y31.218
G1 X34.506 Y30.508
G1 X34.972 Y29.787
G1 X35.426 Y29.065
G1 X35.894 Y28.339
; Path 129
G0 Z0
G0 X37.189 Y28.331
G0 Z2.2
G1 F3000
G1 X36.730 Y29.057
G1 X36.272 Y29.777
G1 X35.808 Y30.483
G1 X35.333 Y31.203
G1 X34.885 Y31.935
G1 X34.426 Y32.642
G1 X33.955 Y33.368
G1 X33.507 Y34.086
G1 X33.045 Y34.811
G1 X32.586 Y35.541
G1 X32.104 Y36.251
G1 X31.650 Y36.970
G1 X31.200 Y37.695
G1 X30.737 Y38.400
G1 X30.270 Y39.129
; Path 130
G0 Z0
G0 X28.378 Y34.476
G0 Z2.2
G1 F3000
G1 X27.789 Y35.108
; Path 131
G0 Z0
G0 X29.945 Y32.922
G0 Z2.2
G1 F3000
G1 X30.538 Y32.364
; Path 132
G0 Z0
G0 X32.180 Y30.828
G0 Z2.2
G1 F3000
G1 X32.689 Y30.182
; Path 133
G0 Z0
G0 X32.005 Y28.338
G0 Z2.2
G1 F3000
G1 X31.545 Y29.071
G1 X31.081 Y29.790
G1 X30.629 Y30.501
G1 X30.175 Y31.217
G1 X29.713 Y31.934
G1 X29.240 Y32.668
G1 X28.769 Y33.372
G1 X28.325 Y34.097
G1 X27.856 Y34.823
G1 X27.407 Y35.532
G1 X26.948 Y36.257
G1 X26.480 Y36.989
G1 X26.014 Y37.700
G1 X25.547 Y38.426
G1 X25.093 Y39.142
; Path 134
G0 Z0
G0 X23.784 Y40.001
G0 Z2.2
G1 F3000
G1 X23.792 Y40.776
G1 X23.788 Y41.564
G1 X23.798 Y42.372
G1 X23.797 Y43.154
G1 X23.780 Y43.934
G1 X23.782 Y44.729
G1 X23.789 Y45.493
G1 X23.789 Y46.283
G1 X23.795 Y47.074
G1 X23.779 Y47.864
G1 X23.787 Y48.652
; Path 135
G0 Z0
G0 X23.754 Y49.101
G0 Z2.2
G1 F3000
G1 X23.409 Y49.228
G1 X23.061 Y49.426
G1 X22.692 Y49.548
G1 X22.327 Y49.687
G1 X21.994 Y49.835
G1 X21.634 Y49.980
; Path 136
G0 Z0
G0 X21.646 Y49.972
G0 Z2.2
G1 F3000
G1 X21.308 Y50.010
G1 X20.956 Y50.044
G1 X20.650 Y50.044
G1 X20.288 Y50.094
G1 X19.935 Y50.113
G1 X19.618 Y50.178
G1 X19.253 Y50.191
G1 X18.929 Y50.245
G1 X18.572 Y50.293
G1 X18.282 Y50.322
G1 X17.882 Y50.350
G1 X17.570 Y50.407
G1 X17.237 Y50.445
G1 X16.882 Y50.471
G1 X16.580 Y50.527
G1 X16.211 Y50.564
G1 X15.880 Y50.614
G1 X15.546 Y50.637
G1 X15.159 Y50.659
G1 X14.853 Y50.698
G1 X14.485 Y50.697
G1 X14.198 Y50.720
G1 X13.807 Y50.802
G1 X13.496 Y50.791
G1 X13.157 Y50.771
G1 X12.799 Y50.805
G1 X12.459 Y50.834
G1 X12.140 Y50.827
G1 X11.795 Y50.809
G1 X11.438 Y50.818
G1 X11.110 Y50.817
G1 X10.787 Y50.788
G1 X10.446 Y50.790
G1 X10.116 Y50.724
G1 X9.766 Y50.687
G1 X9.436 Y50.662
G1 X9.090 Y50.604
G1 X8.772 Y50.574
G1 X8.455 Y50.512
G1 X8.087 Y50.461
G1 X7.781 Y50.422
G1 X7.396 Y50.332
G1 X7.079 Y50.270
G1 X6.739 Y50.202
G1 X6.402 Y50.145
G1 X6.076 Y50.058
G1 X5.739 Y49.959
G1 X5.393 Y49.903
G1 X5.041 Y49.840
G1 X4.713 Y49.725
G1 X4.377 Y49.629
G1 X4.047 Y49.580
G1 X3.732 Y49.471
G1 X3.402 Y49.443
G1 X3.062 Y49.353
G1 X2.702 Y49.252
G1 X2.394 Y49.174
G1 X2.063 Y49.111
G1 X1.709 Y49.010
G1 X1.356 Y48.936
G1 X0.999 Y48.893
G1 X0.716 Y48.806
G1 X0.337 Y48.731
G1 X0.009 Y48.648
; Path 137
G0 Z0
G0 X2.583 Y48.665
G0 Z2.2
G1 F3000
G1 X3.027 Y48.027
G1 X3.448 Y47.365
; Path 138
G0 Z0
G0 X3.468 Y47.344
G0 Z2.2
G1 F3000
G1 X3.906 Y48.014
G1 X4.332 Y48.661
; Path 139
G0 Z0
G0 X5.371 Y44.691
G0 Z2.2
G1 F3000
G1 X4.993 Y43.961
; Path 140
G0 Z0
G0 X3.453 Y46.497
G0 Z2.2
G1 F3000
G1 X3.455 Y47.370
G1 X3.466 Y48.233
G1 X3.463 Y49.092
G1 X3.465 Y49.953
G1 X3.472 Y50.824
G1 X3.460 Y51.672
G1 X3.465 Y52.552
G1 X3.456 Y53.409
G1 X3.458 Y54.264
G1 X3.472 Y55.131
; Path 141
G0 Z0
G0 X0.875 Y55.139
G0 Z2.2
G1 F3000
G1 X1.528 Y54.592
G1 X2.161 Y54.056
G1 X2.829 Y53.536
G1 X3.471 Y52.989
; Path 142
G0 Z0
G0 X3.457 Y52.984
G0 Z2.2
G1 F3000
G1 X4.110 Y53.521
G1 X4.753 Y54.078
G1 X5.407 Y54.611
G1 X6.058 Y55.149
; Path 143
G0 Z0
G0 X5.612 Y53.413
G0 Z2.2
G1 F3000
G1 X5.069 Y52.753
G1 X4.545 Y52.104
G1 X3.987 Y51.460
G1 X3.455 Y50.810
; Path 144
G0 Z0
G0 X3.468 Y50.808
G0 Z2.2
G1 F3000
G1 X2.928 Y51.446
G1 X2.380 Y52.116
G1 X1.824 Y52.744
G1 X1.293 Y53.401
; Path 145
G0 Z0
G0 X1.847 Y52.422
G0 Z2.2
G1 F3000
G1 X2.427 Y51.787
; Path 146
G0 Z0
G0 X2.837 Y49.579
G0 Z2.2
G1 F3000
G1 X2.300 Y50.287
; Path 147
G0 Z0
G0 X1.717 Y50.806
G0 Z2.2
G1 F3000
G1 X2.143 Y50.274
G1 X2.589 Y49.729
G1 X3.022 Y49.193
G1 X3.447 Y48.651
; Path 148
G0 Z0
G0 X3.468 Y48.657
G0 Z2.2
G1 F3000
G1 X3.910 Y49.206
G1 X4.320 Y49.742
G1 X4.750 Y50.290
G1 X5.190 Y50.823
; Path 149
G0 Z0
G0 X4.618 Y50.293
G0 Z2.2
G1 F3000
G1 X4.042 Y49.624
; Path 150
G0 Z0
G0 X6.874 Y51.512
G0 Z2.2
G1 F3000
G1 X6.070 Y51.919
; Path 151
G0 Z0
G0 X5.116 Y52.387
G0 Z2.2
G1 F3000
G1 X4.458 Y51.836
; Path 152
G0 Z0
G0 X4.339 Y52.971
G0 Z2.2
G1 F3000
G1 X4.547 Y52.847
G1 X4.687 Y52.760
G1 X4.879 Y52.681
G1 X5.061 Y52.574
G1 X5.245 Y52.462
G1 X5.419 Y52.361
G1 X5.599 Y52.281
G1 X5.792 Y52.156
G1 X5.960 Y52.030
G1 X6.146 Y51.955
G1 X6.301 Y51.794
G1 X6.500 Y51.705
G1 X6.678 Y51.593
G1 X6.863 Y51.503
G1 X7.040 Y51.404
G1 X7.223 Y51.312
G1 X7.397 Y51.258
G1 X7.580 Y51.143
G1 X7.781 Y51.094
G1 X7.964 Y51.034
G1 X8.120 Y50.943
G1 X8.274 Y50.877
G1 X8.479 Y50.863
G1 X8.659 Y50.819
G1 X8.848 Y50.804
G1 X9.039 Y50.764
G1 X9.197 Y50.784
G1 X9.404 Y50.823
G1 X9.522 Y50.805
G1 X9.735 Y50.826
G1 X9.947 Y50.843
G1 X10.088 Y50.866
G1 X10.272 Y50.927
G1 X10.463 Y51.004
G1 X10.654 Y51.003
G1 X10.809 Y51.070
G1 X10.967 Y51.105
G1 X11.159 Y51.160
G1 X11.345 Y51.236
G1 X11.532 Y51.288
G1 X11.719 Y51.342
G1 X11.882 Y51.409
G1 X12.051 Y51.435
G1 X12.266 Y51.527
G1 X12.419 Y51.569
G1 X12.571 Y51.608
G1 X12.796 Y51.655
G1 X12.956 Y51.700
; Path 153
G0 Z0
G0 X12.999 Y51.663
G0 Z2.2
G1 F3000
G1 X13.136 Y51.669
G1 X13.308 Y51.610
G1 X13.428 Y51.595
G1 X13.551 Y51.582
G1 X13.718 Y51.542
G1 X13.861 Y51.506
G1 X13.985 Y51.496
G1 X14.162 Y51.463
G1 X14.295 Y51.408
G1 X14.427 Y51.353
G1 X14.579 Y51.329
G1 X14.728 Y51.315
G1 X14.872 Y51.305
G1 X15.039 Y51.255
G1 X15.159 Y51.238
G1 X15.312 Y51.203
G1 X15.462 Y51.235
G1 X15.585 Y51.192
G1 X15.729 Y51.161
G1 X15.875 Y51.175
G1 X16.004 Y51.188
G1 X16.167 Y51.203
G1 X16.248 Y51.198
G1 X16.415 Y51.240
G1 X16.583 Y51.283
G1 X16.701 Y51.323
G1 X16.816 Y51.356
G1 X16.928 Y51.427
G1 X17.066 Y51.497
G1 X17.208 Y51.527
G1 X17.337 Y51.598
G1 X17.490 Y51.695
G1 X17.594 Y51.741
G1 X17.754 Y51.792
G1 X17.816 Y51.920
G1 X17.975 Y51.985
G1 X18.124 Y52.047
G1 X18.213 Y52.170
G1 X18.353 Y52.246
G1 X18.460 Y52.331
G1 X18.603 Y52.409
G1 X18.731 Y52.511
G1 X18.889 Y52.582
G1 X18.997 Y52.715
G1 X19.110 Y52.768
G1 X19.214 Y52.851
G1 X19.333 Y52.922
G1 X19.492 Y53.003
; Path 154
G0 Z0
G0 X19.007 Y51.400
G0 Z2.2
G1 F3000
G1 X19.837 Y51.172
; Path 155
G0 Z0
G0 X19.897 Y50.855
G0 Z2.2
G1 F3000
G1 X19.005 Y50.835
; Path 156
G0 Z0
G0 X21.169 Y50.377
G0 Z2.2
G1 F3000
G1 X22.045 Y50.332
; Path 157
G0 Z0
G0 X23.809 Y52.974
G0 Z2.2
G1 F3000
G1 X23.779 Y52.884
G1 X23.685 Y52.760
G1 X23.644 Y52.631
G1 X23.557 Y52.494
G1 X23.564 Y52.404
G1 X23.474 Y52.259
G1 X23.389 Y52.107
G1 X23.388 Y52.003
G1 X23.303 Y51.874
G1 X23.274 Y51.744
G1 X23.168 Y51.588
G1 X23.132 Y51.496
G1 X23.061 Y51.375
G1 X23.022 Y51.241
G1 X22.965 Y51.141
G1 X22.946 Y51.034
G1 X22.842 Y50.914
G1 X22.804 Y50.828
G1 X22.782 Y50.727
G1 X22.689 Y50.640
G1 X22.651 Y50.574
G1 X22.632 Y50.544
G1 X22.558 Y50.431
G1 X22.509 Y50.396
G1 X22.493 Y50.374
G1 X22.392 Y50.335
G1 X22.379 Y50.307
G1 X22.361 Y50.296
G1 X22.321 Y50.310
G1 X22.260 Y50.295
G1 X22.252 Y50.332
G1 X22.152 Y50.351
G1 X22.150 Y50.342
G1 X22.098 Y50.383
G1 X22.060 Y50.434
G1 X22.046 Y50.430
G1 X22.033 Y50.452
G1 X22.005 Y50.524
G1 X21.945 Y50.541
G1 X21.897 Y50.574
G1 X21.847 Y50.630
G1 X21.845 Y50.659
G1 X21.832 Y50.725
G1 X21.762 Y50.697
G1 X21.743 Y50.765
G1 X21.734 Y50.775
G1 X21.659 Y50.837
G1 X21.637 Y50.841
; Path 158
G0 Z0
G0 X21.587 Y50.784
G0 Z2.2
G1 F3000
G1 X21.485 Y50.759
G1 X21.387 Y50.667
G1 X21.317 Y50.651
G1 X21.204 Y50.614
G1 X21.151 Y50.542
G1 X21.046 Y50.481
G1 X20.936 Y50.413
G1 X20.849 Y50.333
G1 X20.775 Y50.295
G1 X20.703 Y50.269
G1 X20.570 Y50.155
G1 X20.504 Y50.117
G1 X20.412 Y50.097
G1 X20.337 Y50.040
G1 X20.234 Y49.969
G1 X20.159 Y49.963
G1 X20.048 Y49.924
G1 X19.964 Y49.875
G1 X19.896 Y49.872
G1 X19.801 Y49.842
G1 X19.694 Y49.858
G1 X19.575 Y49.858
G1 X19.492 Y49.930
G1 X19.426 Y49.939
G1 X19.316 Y49.992
G1 X19.264 Y50.091
G1 X19.159 Y50.136
G1 X19.060 Y50.220
G1 X18.980 Y50.343
G1 X18.894 Y50.431
G1 X18.823 Y50.563
G1 X18.745 Y50.701
G1 X18.629 Y50.803
G1 X18.520 Y50.911
G1 X18.468 Y51.070
G1 X18.364 Y51.229
G1 X18.260 Y51.371
G1 X18.222 Y51.550
G1 X18.100 Y51.685
G1 X18.037 Y51.852
G1 X17.950 Y52.015
G1 X17.836 Y52.149
G1 X17.721 Y52.266
G1 X17.628 Y52.479
G1 X17.572 Y52.597
G1 X17.465 Y52.743
G1 X17.364 Y52.848
G1 X17.307 Y53.008
; Path 159
G0 Z0
G0 X15.573 Y52.047
G0 Z2.2
G1 F3000
G1 X14.735 Y52.107
; Path 160
G0 Z0
G0 X11.259 Y50.002
G0 Z2.2
G1 F3000
G1 X10.400 Y49.920
; Path 161
G0 Z0
G0 X11.756 Y47.235
G0 Z2.2
G1 F3000
G1 X12.554 Y47.502
; Path 162
G0 Z0
G0 X17.700 Y44.286
G0 Z2.2
G1 F3000
G1 X18.604 Y44.361
; Path 163
G0 Z0
G0 X23.779 Y45.190
G0 Z2.2
G1 F3000
G1 X24.501 Y45.198
G1 X25.230 Y45.193
G1 X25.953 Y45.193
G1 X26.661 Y45.184
G1 X27.394 Y45.184
G1 X28.118 Y45.198
; Path 164
G0 Z0
G0 X28.106 Y43.884
G0 Z2.2
G1 F3000
G1 X27.386 Y43.891
G1 X26.660 Y43.896
G1 X25.945 Y43.900
G1 X25.220 Y43.888
G1 X24.490 Y43.899
G1 X23.779 Y43.894
; Path 165
G0 Z0
G0 X23.775 Y42.607
G0 Z2.2
G1 F3000
G1 X24.490 Y42.619
G1 X25.209 Y42.595
G1 X25.951 Y42.615
G1 X26.654 Y42.616
G1 X27.376 Y42.595
G1 X28.111 Y42.605
; Path 166
G0 Z0
G0 X30.261 Y46.498
G0 Z2.2
G1 F3000
G1 X30.255 Y47.221
G1 X30.257 Y47.930
G1 X30.259 Y48.646
; Path 167
G0 Z0
G0 X30.704 Y51.795
G0 Z2.2
G1 F3000
G1 X29.854 Y51.544
; Path 168
G0 Z0
G0 X28.097 Y50.811
G0 Z2.2
G1 F3000
G1 X28.094 Y50.090
G1 X28.095 Y49.369
G1 X28.099 Y48.657
; Path 169
G0 Z0
G0 X28.116 Y47.789
G0 Z2.2
G1 F3000
G1 X27.252 Y47.797
G1 X26.394 Y47.792
G1 X25.529 Y47.784
G1 X24.651 Y47.798
G1 X23.795 Y47.800
; Path 170
G0 Z0
G0 X23.794 Y48.652
G0 Z2.2
G1 F3000
G1 X24.644 Y48.646
G1 X25.491 Y48.642
G1 X26.362 Y48.657
G1 X27.217 Y48.656
G1 X28.070 Y48.652
G1 X28.921 Y48.654
G1 X29.768 Y48.643
G1 X30.612 Y48.652
G1 X31.484 Y48.645
G1 X32.326 Y48.654
G1 X33.180 Y48.641
G1 X34.033 Y48.651
G1 X34.877 Y48.650
G1 X35.732 Y48.641
G1 X36.596 Y48.655
G1 X37.453 Y48.654
G1 X38.304 Y48.643
G1 X39.167 Y48.645
G1 X40.001 Y48.655
G1 X40.871 Y48.641
G1 X41.718 Y48.635
G1 X42.580 Y48.638
G1 X43.425 Y48.642
G1 X44.277 Y48.649
G1 X45.122 Y48.655
G1 X45.978 Y48.639
G1 X46.835 Y48.643
G1 X47.696 Y48.637
G1 X48.547 Y48.650
G1 X49.406 Y48.646
G1 X50.260 Y48.655
G1 X51.111 Y48.649
G1 X51.971 Y48.654
G1 X52.824 Y48.632
G1 X53.666 Y48.654
G1 X54.508 Y48.653
G1 X55.365 Y48.640
G1 X56.228 Y48.642
; Path 171
G0 Z0
G0 X56.225 Y47.777
G0 Z2.2
G1 F3000
G1 X55.350 Y47.775
G1 X54.483 Y47.791
G1 X53.628 Y47.792
G1 X52.756 Y47.777
G1 X51.901 Y47.790
; Path 172
G0 Z0
G0 X53.200 Y48.645
G0 Z2.2
G1 F3000
G1 X53.193 Y47.778
G1 X53.191 Y46.919
G1 X53.194 Y46.059
G1 X53.201 Y45.202
G1 X53.201 Y44.340
; Path 173
G0 Z0
G0 X53.190 Y45.195
G0 Z2.2
G1 F3000
G1 X52.343 Y45.195
G1 X51.501 Y45.187
G1 X50.646 Y45.185
G1 X49.795 Y45.197
G1 X48.938 Y45.182
G1 X48.093 Y45.193
G1 X47.227 Y45.204
G1 X46.397 Y45.187
G1 X45.542 Y45.184
G1 X44.687 Y45.182
G1 X43.825 Y45.194
G1 X42.975 Y45.200
G1 X42.141 Y45.179
G1 X41.269 Y45.180
G1 X40.440 Y45.186
G1 X39.575 Y45.179
G1 X38.721 Y45.196
G1 X37.872 Y45.186
G1 X37.026 Y45.197
G1 X36.180 Y45.183
G1 X35.326 Y45.195
G1 X34.466 Y45.199
G1 X33.619 Y45.194
G1 X32.772 Y45.197
G1 X31.926 Y45.186
G1 X31.070 Y45.175
G1 X30.220 Y45.186
G1 X29.359 Y45.180
G1 X28.520 Y45.194
G1 X27.663 Y45.187
G1 X26.817 Y45.184
; Path 174
G0 Z0
G0 X26.799 Y44.328
G0 Z2.2
G1 F3000
G1 X26.803 Y45.195
G1 X26.799 Y46.045
G1 X26.793 Y46.917
G1 X26.793 Y47.780
G1 X26.803 Y48.648
; Path 175
G0 Z0
G0 X25.959 Y48.663
G0 Z2.2
G1 F3000
G1 X25.954 Y49.387
G1 X25.952 Y50.103
G1 X25.951 Y50.814
; Path 176
G0 Z0
G0 X25.936 Y50.808
G0 Z2.2
G1 F3000
G1 X26.799 Y50.816
G1 X27.648 Y50.820
G1 X28.494 Y50.812
G1 X29.357 Y50.796
G1 X30.207 Y50.812
G1 X31.050 Y50.796
G1 X31.896 Y50.797
G1 X32.762 Y50.797
G1 X33.606 Y50.807
G1 X34.462 Y50.820
G1 X35.299 Y50.808
G1 X36.162 Y50.800
G1 X37.004 Y50.803
G1 X37.868 Y50.804
G1 X38.713 Y50.813
G1 X39.578 Y50.800
G1 X40.422 Y50.809
G1 X41.277 Y50.818
G1 X42.122 Y50.796
G1 X42.977 Y50.799
G1 X43.834 Y50.806
G1 X44.692 Y50.813
G1 X45.534 Y50.800
G1 X46.378 Y50.820
G1 X47.242 Y50.802
G1 X48.098 Y50.808
G1 X48.949 Y50.801
G1 X49.789 Y50.800
G1 X50.655 Y50.814
G1 X51.490 Y50.820
G1 X52.352 Y50.817
G1 X53.210 Y50.807
G1 X54.053 Y50.809
; Path 177
G0 Z0
G0 X54.063 Y50.808
G0 Z2.2
G1 F3000
G1 X54.057 Y50.096
G1 X54.049 Y49.364
G1 X54.048 Y48.648
; Path 178
G0 Z0
G0 X54.059 Y48.648
G0 Z2.2
G1 F3000
G1 X53.198 Y48.642
G1 X52.349 Y48.654
G1 X51.513 Y48.652
G1 X50.640 Y48.650
G1 X49.802 Y48.650
G1 X48.955 Y48.640
G1 X48.094 Y48.641
G1 X47.247 Y48.636
G1 X46.387 Y48.646
G1 X45.529 Y48.634
G1 X44.696 Y48.643
G1 X43.839 Y48.633
G1 X42.983 Y48.640
G1 X42.134 Y48.639
G1 X41.289 Y48.636
G1 X40.437 Y48.649
G1 X39.582 Y48.651
G1 X38.708 Y48.633
G1 X37.863 Y48.640
G1 X37.023 Y48.642
G1 X36.159 Y48.644
G1 X35.308 Y48.641
G1 X34.447 Y48.640
G1 X33.609 Y48.643
G1 X32.752 Y48.639
G1 X31.893 Y48.646
G1 X31.060 Y48.654
G1 X30.190 Y48.630
G1 X29.339 Y48.649
G1 X28.488 Y48.639
G1 X27.636 Y48.637
G1 X26.795 Y48.648
G1 X25.938 Y48.640
; Path 179
G0 Z0
G0 X23.788 Y46.488
G0 Z2.2
G1 F3000
G1 X24.514 Y46.478
G1 X25.221 Y46.478
G1 X25.955 Y46.479
G1 X26.682 Y46.472
G1 X27.391 Y46.476
G1 X28.115 Y46.478
; Path 180
G0 Z0
G0 X26.822 Y46.493
G0 Z2.2
G1 F3000
G1 X27.663 Y46.500
G1 X28.535 Y46.496
G1 X29.379 Y46.487
G1 X30.220 Y46.483
G1 X31.064 Y46.481
G1 X31.918 Y46.502
G1 X32.789 Y46.497
G1 X33.625 Y46.487
G1 X34.481 Y46.497
G1 X35.321 Y46.500
G1 X36.172 Y46.481
G1 X37.027 Y46.496
G1 X37.876 Y46.486
G1 X38.731 Y46.480
G1 X39.596 Y46.479
G1 X40.445 Y46.485
G1 X41.276 Y46.490
G1 X42.138 Y46.482
G1 X42.993 Y46.486
G1 X43.845 Y46.475
G1 X44.681 Y46.494
G1 X45.527 Y46.490
G1 X46.390 Y46.480
G1 X47.235 Y46.482
G1 X48.079 Y46.477
G1 X48.929 Y46.473
G1 X49.802 Y46.490
G1 X50.645 Y46.471
G1 X51.481 Y46.472
G1 X52.354 Y46.491
G1 X53.194 Y46.478
; Path 181
G0 Z0
G0 X51.893 Y46.480
G0 Z2.2
G1 F3000
G1 X52.755 Y46.489
G1 X53.622 Y46.492
G1 X54.475 Y46.486
G1 X55.333 Y46.493
G1 X56.205 Y46.487
; Path 182
G0 Z0
G0 X56.226 Y45.191
G0 Z2.2
G1 F3000
G1 X55.493 Y45.192
G1 X54.780 Y45.184
G1 X54.059 Y45.210
G1 X53.348 Y45.192
G1 X52.603 Y45.208
G1 X51.892 Y45.206
; Path 183
G0 Z0
G0 X51.896 Y43.904
G0 Z2.2
G1 F3000
G1 X52.758 Y43.912
G1 X53.630 Y43.906
G1 X54.476 Y43.900
G1 X55.346 Y43.886
G1 X56.211 Y43.892
; Path 184
G0 Z0
G0 X56.206 Y42.592
G0 Z2.2
G1 F3000
G1 X55.347 Y42.588
G1 X54.477 Y42.599
G1 X53.606 Y42.606
G1 X52.754 Y42.611
G1 X51.888 Y42.610
; Path 185
G0 Z0
G0 X51.899 Y41.306
G0 Z2.2
G1 F3000
G1 X52.771 Y41.315
G1 X53.610 Y41.302
G1 X54.475 Y41.312
G1 X55.337 Y41.288
G1 X56.204 Y41.298
; Path 186
G0 Z0
G0 X57.524 Y39.992
G0 Z2.2
G1 F3000
G1 X57.519 Y40.427
G1 X57.515 Y40.879
; Path 187
G0 Z0
G0 X57.501 Y40.880
G0 Z2.2
G1 F3000
G1 X56.848 Y40.442
G1 X56.216 Y40.000
; Path 188
G0 Z0
G0 X56.202 Y39.579
G0 Z2.2
G1 F3000
G1 X56.068 Y39.443
G1 X55.927 Y39.247
G1 X55.831 Y39.088
G1 X55.698 Y38.909
G1 X55.595 Y38.767
G1 X55.465 Y38.588
G1 X55.338 Y38.427
G1 X55.189 Y38.247
G1 X55.101 Y38.085
G1 X54.979 Y37.887
G1 X54.845 Y37.757
G1 X54.735 Y37.584
G1 X54.631 Y37.392
G1 X54.482 Y37.251
G1 X54.366 Y37.089
G1 X54.275 Y36.907
G1 X54.145 Y36.750
G1 X53.991 Y36.606
G1 X53.833 Y36.467
G1 X53.711 Y36.322
G1 X53.607 Y36.140
G1 X53.468 Y36.026
G1 X53.362 Y35.827
G1 X53.211 Y35.696
G1 X53.059 Y35.530
G1 X52.905 Y35.440
G1 X52.802 Y35.277
G1 X52.672 Y35.119
G1 X52.508 Y35.038
G1 X52.382 Y34.880
G1 X52.230 Y34.779
G1 X52.092 Y34.649
G1 X51.952 Y34.500
G1 X51.830 Y34.393
G1 X51.684 Y34.285
G1 X51.516 Y34.132
G1 X51.381 Y34.006
G1 X51.223 Y33.919
G1 X51.077 Y33.771
G1 X50.905 Y33.646
G1 X50.796 Y33.556
G1 X50.636 Y33.411
G1 X50.469 Y33.308
G1 X50.336 Y33.151
G1 X50.198 Y33.048
G1 X50.028 Y32.890
G1 X49.922 Y32.768
G1 X49.764 Y32.676
; Path 189
G0 Z0
G0 X49.735 Y32.687
G0 Z2.2
G1 F3000
G1 X49.616 Y32.567
G1 X49.453 Y32.377
G1 X49.362 Y32.250
G1 X49.251 Y32.108
G1 X49.118 Y31.962
G1 X48.994 Y31.813
G1 X48.884 Y31.659
G1 X48.782 Y31.527
G1 X48.627 Y31.375
G1 X48.479 Y31.236
G1 X48.396 Y31.066
G1 X48.260 Y30.938
G1 X48.125 Y30.820
G1 X48.015 Y30.619
G1 X47.889 Y30.501
G1 X47.732 Y30.346
G1 X47.662 Y30.218
G1 X47.511 Y30.064
G1 X47.354 Y29.923
G1 X47.263 Y29.794
G1 X47.124 Y29.628
G1 X46.977 Y29.498
G1 X46.825 Y29.323
G1 X46.725 Y29.194
G1 X46.583 Y29.020
G1 X46.465 Y28.938
G1 X46.312 Y28.760
G1 X46.164 Y28.612
G1 X46.034 Y28.454
G1 X45.886 Y28.328
G1 X45.751 Y28.175
G1 X45.578 Y28.035
G1 X45.452 Y27.896
G1 X45.328 Y27.728
G1 X45.184 Y27.613
G1 X45.010 Y27.465
G1 X44.855 Y27.325
G1 X44.705 Y27.194
G1 X44.565 Y27.035
G1 X44.423 Y26.871
G1 X44.256 Y26.775
G1 X44.119 Y26.604
G1 X43.968 Y26.473
G1 X43.805 Y26.351
G1 X43.675 Y26.173
G1 X43.516 Y26.058
G1 X43.370 Y25.888
G1 X43.236 Y25.742
; Path 190
G0 Z0
G0 X43.277 Y25.714
G0 Z2.2
G1 F3000
G1 X43.231 Y25.622
G1 X43.173 Y25.538
G1 X43.112 Y25.447
G1 X43.089 Y25.339
G1 X43.034 Y25.233
G1 X42.951 Y25.177
G1 X42.920 Y25.100
G1 X42.860 Y25.002
G1 X42.791 Y24.906
G1 X42.713 Y24.814
G1 X42.713 Y24.742
G1 X42.630 Y24.635
G1 X42.542 Y24.565
G1 X42.500 Y24.479
G1 X42.466 Y24.367
G1 X42.377 Y24.291
G1 X42.366 Y24.226
G1 X42.298 Y24.104
G1 X42.273 Y23.988
G1 X42.153 Y23.904
G1 X42.123 Y23.848
G1 X42.093 Y23.749
G1 X42.017 Y23.707
G1 X41.938 Y23.600
G1 X41.892 Y23.520
G1 X41.824 Y23.468
G1 X41.743 Y23.363
G1 X41.646 Y23.260
G1 X41.587 Y23.189
G1 X41.540 Y23.135
G1 X41.435 Y23.045
G1 X41.390 Y22.984
G1 X41.329 Y22.914
G1 X41.241 Y22.868
G1 X41.173 Y22.736
G1 X41.113 Y22.697
G1 X41.035 Y22.595
G1 X40.980 Y22.559
G1 X40.895 Y22.483
G1 X40.839 Y22.412
G1 X40.749 Y22.342
G1 X40.676 Y22.270
G1 X40.621 Y22.188
G1 X40.526 Y22.122
G1 X40.459 Y22.055
G1 X40.395 Y21.950
G1 X40.326 Y21.897
G1 X40.244 Y21.837
; Path 191
G0 Z0
G0 X40.205 Y22.705
G0 Z2.2
G1 F3000
G1 X40.447 Y23.527
G1 X40.680 Y24.371
G1 X40.897 Y25.210
G1 X41.129 Y26.019
G1 X41.375 Y26.860
G1 X41.615 Y27.681
G1 X41.850 Y28.532
G1 X42.069 Y29.352
G1 X42.310 Y30.197
G1 X42.527 Y31.028
G1 X42.778 Y31.863
G1 X43.006 Y32.686
G1 X43.237 Y33.513
; Path 192
G0 Z0
G0 X42.655 Y35.212
G0 Z2.2
G1 F3000
G1 X42.156 Y34.469
; Path 193
G0 Z0
G0 X39.822 Y35.259
G0 Z2.2
G1 F3000
G1 X39.825 Y36.174
; Path 194
G0 Z0
G0 X41.917 Y37.751
G0 Z2.2
G1 F3000
G1 X42.771 Y37.991
; Path 195
G0 Z0
G0 X41.504 Y38.841
G0 Z2.2
G1 F3000
G1 X40.642 Y38.625
; Path 196
G0 Z0
G0 X40.220 Y38.963
G0 Z2.2
G1 F3000
G1 X41.079 Y39.334
; Path 197
G0 Z0
G0 X39.307 Y39.258
G0 Z2.2
G1 F3000
G1 X38.495 Y38.950
; Path 198
G0 Z0
G0 X38.438 Y37.776
G0 Z2.2
G1 F3000
G1 X37.586 Y37.980
; Path 199
G0 Z0
G0 X37.151 Y38.483
G0 Z2.2
G1 F3000
G1 X36.414 Y38.910
; Path 200
G0 Z0
G0 X36.780 Y40.454
G0 Z2.2
G1 F3000
G1 X36.697 Y40.548
G1 X36.627 Y40.718
G1 X36.503 Y40.827
G1 X36.430 Y40.955
G1 X36.341 Y41.095
G1 X36.225 Y41.199
G1 X36.106 Y41.327
G1 X36.059 Y41.443
G1 X35.947 Y41.572
G1 X35.826 Y41.722
G1 X35.754 Y41.786
G1 X35.669 Y41.944
G1 X35.564 Y42.098
G1 X35.478 Y42.180
G1 X35.392 Y42.317
G1 X35.285 Y42.409
G1 X35.216 Y42.550
G1 X35.116 Y42.691
G1 X35.048 Y42.794
G1 X34.951 Y42.931
G1 X34.841 Y43.065
G1 X34.768 Y43.169
G1 X34.678 Y43.348
G1 X34.568 Y43.441
G1 X34.494 Y43.570
G1 X34.369 Y43.691
G1 X34.298 Y43.817
G1 X34.191 Y43.920
G1 X34.114 Y44.102
G1 X34.029 Y44.196
G1 X33.949 Y44.300
G1 X33.822 Y44.473
G1 X33.762 Y44.575
G1 X33.706 Y44.693
G1 X33.555 Y44.841
G1 X33.495 Y44.954
G1 X33.373 Y45.097
G1 X33.353 Y45.237
G1 X33.230 Y45.334
G1 X33.135 Y45.465
G1 X33.032 Y45.568
G1 X32.964 Y45.714
G1 X32.848 Y45.865
G1 X32.789 Y45.977
G1 X32.698 Y46.094
G1 X32.643 Y46.226
G1 X32.501 Y46.348
G1 X32.432 Y46.474
; Path 201
G0 Z0
G0 X34.596 Y46.490
G0 Z2.2
G1 F3000
G1 X34.589 Y47.216
G1 X34.597 Y47.938
G1 X34.601 Y48.650
; Path 202
G0 Z0
G0 X36.753 Y48.663
G0 Z2.2
G1 F3000
G1 X36.764 Y49.375
G1 X36.755 Y50.107
G1 X36.758 Y50.823
; Path 203
G0 Z0
G0 X37.085 Y50.996
G0 Z2.2
G1 F3000
G1 X36.312 Y50.660
; Path 204
G0 Z0
G0 X34.971 Y50.111
G0 Z2.2
G1 F3000
G1 X34.137 Y49.738
; Path 205
G0 Z0
G0 X32.424 Y48.650
G0 Z2.2
G1 F3000
G1 X32.416 Y49.362
G1 X32.422 Y50.083
G1 X32.432 Y50.806
; Path 206
G0 Z0
G0 X34.223 Y52.375
G0 Z2.2
G1 F3000
G1 X34.977 Y52.760
; Path 207
G0 Z0
G0 X38.246 Y56.367
G0 Z2.2
G1 F3000
G1 X38.680 Y55.640
; Path 208
G0 Z0
G0 X40.181 Y54.264
G0 Z2.2
G1 F3000
G1 X40.300 Y55.107
; Path 209
G0 Z0
G0 X40.815 Y56.889
G0 Z2.2
G1 F3000
G1 X40.522 Y57.713
; Path 210
G0 Z0
G0 X38.659 Y58.262
G0 Z2.2
G1 F3000
G1 X39.155 Y58.938
; Path 211
G0 Z0
G0 X38.026 Y59.468
G0 Z2.2
G1 F3000
G1 X37.962 Y59.345
G1 X37.879 Y59.157
G1 X37.840 Y59.032
G1 X37.771 Y58.871
G1 X37.680 Y58.765
G1 X37.621 Y58.591
G1 X37.560 Y58.440
G1 X37.476 Y58.284
G1 X37.389 Y58.149
G1 X37.344 Y58.006
G1 X37.233 Y57.825
G1 X37.163 Y57.707
G1 X37.069 Y57.540
G1 X37.015 Y57.405
G1 X36.964 Y57.269
G1 X36.932 Y57.123
G1 X36.882 Y56.990
G1 X36.813 Y56.837
G1 X36.756 Y56.704
G1 X36.784 Y56.524
G1 X36.730 Y56.415
G1 X36.718 Y56.243
G1 X36.733 Y56.146
G1 X36.735 Y56.004
G1 X36.766 Y55.850
G1 X36.797 Y55.740
G1 X36.842 Y55.607
G1 X36.941 Y55.509
G1 X36.962 Y55.323
G1 X37.038 Y55.221
G1 X37.091 Y55.103
G1 X37.206 Y54.963
G1 X37.301 Y54.844
G1 X37.406 Y54.741
G1 X37.479 Y54.582
G1 X37.612 Y54.474
G1 X37.718 Y54.353
G1 X37.812 Y54.259
G1 X37.950 Y54.108
G1 X38.038 Y53.953
G1 X38.208 Y53.845
G1 X38.295 Y53.742
G1 X38.399 Y53.619
G1 X38.493 Y53.527
G1 X38.626 Y53.375
G1 X38.693 Y53.271
G1 X38.823 Y53.104
G1 X38.924 Y53.003
; Path 212
G0 Z0
G0 X39.806 Y52.987
G0 Z2.2
G1 F3000
G1 X39.883 Y53.091
G1 X39.993 Y53.169
G1 X40.057 Y53.254
G1 X40.145 Y53.359
G1 X40.268 Y53.454
G1 X40.358 Y53.521
G1 X40.490 Y53.596
G1 X40.570 Y53.688
G1 X40.680 Y53.788
G1 X40.774 Y53.853
G1 X40.860 Y53.971
G1 X40.992 Y54.054
G1 X41.067 Y54.155
G1 X41.173 Y54.231
G1 X41.263 Y54.321
G1 X41.318 Y54.399
G1 X41.370 Y54.473
G1 X41.464 Y54.589
G1 X41.508 Y54.691
G1 X41.506 Y54.778
G1 X41.563 Y54.857
G1 X41.556 Y54.927
G1 X41.569 Y55.022
G1 X41.531 Y55.127
G1 X41.473 Y55.224
G1 X41.352 Y55.287
G1 X41.313 Y55.397
G1 X41.176 Y55.466
G1 X41.040 Y55.595
G1 X40.912 Y55.669
G1 X40.757 Y55.778
G1 X40.569 Y55.867
G1 X40.391 Y55.942
G1 X40.164 Y56.041
G1 X40.007 Y56.131
G1 X39.809 Y56.215
G1 X39.609 Y56.285
G1 X39.388 Y56.378
G1 X39.227 Y56.488
G1 X39.048 Y56.584
G1 X38.875 Y56.641
G1 X38.705 Y56.762
G1 X38.544 Y56.871
G1 X38.418 Y56.976
G1 X38.305 Y57.034
G1 X38.226 Y57.151
G1 X38.137 Y57.222
G1 X38.086 Y57.306
G1 X38.082 Y57.405
G1 X38.076 Y57.467
G1 X38.053 Y57.577
G1 X38.112 Y57.692
G1 X38.128 Y57.724
G1 X38.152 Y57.848
G1 X38.210 Y57.965
G1 X38.261 Y58.028
G1 X38.351 Y58.118
G1 X38.420 Y58.198
G1 X38.515 Y58.269
G1 X38.621 Y58.388
G1 X38.732 Y58.487
G1 X38.823 Y58.592
G1 X38.931 Y58.657
G1 X39.005 Y58.726
G1 X39.155 Y58.811
G1 X39.251 Y58.927
G1 X39.369 Y59.035
G1 X39.469 Y59.126
G1 X39.551 Y59.197
G1 X39.626 Y59.281
G1 X39.714 Y59.346
G1 X39.801 Y59.467
; Path 213
G0 Z0
G0 X41.537 Y59.495
G0 Z2.2
G1 F3000
G1 X41.625 Y59.322
G1 X41.632 Y59.189
G1 X41.721 Y59.052
G1 X41.808 Y58.871
G1 X41.861 Y58.760
G1 X41.939 Y58.604
G1 X42.038 Y58.484
G1 X42.101 Y58.317
G1 X42.170 Y58.154
G1 X42.234 Y58.034
G1 X42.300 Y57.888
G1 X42.395 Y57.704
G1 X42.452 Y57.527
G1 X42.499 Y57.427
G1 X42.592 Y57.259
G1 X42.651 Y57.128
G1 X42.659 Y56.945
G1 X42.743 Y56.821
G1 X42.758 Y56.679
G1 X42.766 Y56.515
G1 X42.827 Y56.394
G1 X42.847 Y56.255
G1 X42.814 Y56.132
G1 X42.824 Y55.980
G1 X42.790 Y55.878
G1 X42.757 Y55.736
G1 X42.720 Y55.581
G1 X42.624 Y55.458
G1 X42.573 Y55.311
G1 X42.529 Y55.196
G1 X42.429 Y55.078
G1 X42.373 Y54.919
G1 X42.271 Y54.821
G1 X42.191 Y54.684
G1 X42.040 Y54.542
G1 X41.966 Y54.454
G1 X41.867 Y54.320
G1 X41.730 Y54.204
G1 X41.635 Y54.091
G1 X41.497 Y53.990
G1 X41.398 Y53.848
G1 X41.296 Y53.728
G1 X41.207 Y53.618
G1 X41.068 Y53.459
G1 X40.971 Y53.364
G1 X40.845 Y53.257
G1 X40.753 Y53.122
G1 X40.680 Y52.995
; Path 214
G0 Z0
G0 X40.201 Y52.295
G0 Z2.2
G1 F3000
G1 X39.420 Y51.858
; Path 215
G0 Z0
G0 X39.355 Y51.247
G0 Z2.2
G1 F3000
G1 X40.166 Y51.272
; Path 216
G0 Z0
G0 X41.073 Y50.819
G0 Z2.2
G1 F3000
G1 X41.066 Y50.103
G1 X41.070 Y49.376
G1 X41.086 Y48.663
; Path 217
G0 Z0
G0 X42.763 Y50.781
G0 Z2.2
G1 F3000
G1 X43.612 Y50.793
; Path 218
G0 Z0
G0 X45.443 Y50.345
G0 Z2.2
G1 F3000
G1 X45.401 Y49.466
; Path 219
G0 Z0
G0 X45.402 Y48.647
G0 Z2.2
G1 F3000
G1 X45.394 Y49.361
G1 X45.400 Y50.103
G1 X45.408 Y50.823
; Path 220
G0 Z0
G0 X45.070 Y52.259
G0 Z2.2
G1 F3000
G1 X45.768 Y52.808
; Path 221
G0 Z0
G0 X49.356 Y51.460
G0 Z2.2
G1 F3000
G1 X50.073 Y51.983
; Path 222
G0 Z0
G0 X49.741 Y50.816
G0 Z2.2
G1 F3000
G1 X49.749 Y50.094
G1 X49.731 Y49.371
G1 X49.739 Y48.652
; Path 223
G0 Z0
G0 X47.577 Y48.640
G0 Z2.2
G1 F3000
G1 X47.581 Y47.916
G1 X47.553 Y47.205
G1 X47.558 Y46.495
; Path 224
G0 Z0
G0 X47.593 Y46.457
G0 Z2.2
G1 F3000
G1 X47.518 Y46.366
G1 X47.430 Y46.226
G1 X47.316 Y46.080
G1 X47.209 Y45.985
G1 X47.165 Y45.821
G1 X47.040 Y45.702
G1 X46.934 Y45.588
G1 X46.822 Y45.419
G1 X46.763 Y45.324
G1 X46.637 Y45.211
G1 X46.590 Y45.098
G1 X46.486 Y44.946
G1 X46.423 Y44.846
G1 X46.301 Y44.722
G1 X46.210 Y44.569
G1 X46.134 Y44.476
G1 X46.013 Y44.286
G1 X45.934 Y44.191
G1 X45.871 Y44.076
G1 X45.718 Y43.934
G1 X45.660 Y43.815
G1 X45.581 Y43.701
G1 X45.451 Y43.568
G1 X45.387 Y43.439
G1 X45.303 Y43.281
G1 X45.234 Y43.214
G1 X45.116 Y43.065
G1 X45.009 Y42.920
G1 X44.957 Y42.803
G1 X44.847 Y42.691
G1 X44.753 Y42.535
G1 X44.688 Y42.432
G1 X44.579 Y42.318
G1 X44.475 Y42.206
G1 X44.405 Y42.085
G1 X44.312 Y41.945
G1 X44.227 Y41.817
G1 X44.113 Y41.714
G1 X44.045 Y41.573
G1 X43.957 Y41.441
G1 X43.885 Y41.342
G1 X43.778 Y41.201
G1 X43.655 Y41.048
G1 X43.612 Y40.986
G1 X43.511 Y40.828
G1 X43.395 Y40.711
G1 X43.324 Y40.583
G1 X43.244 Y40.456
; Path 225
G0 Z0
G0 X40.708 Y44.590
G0 Z2.2
G1 F3000
G1 X41.471 Y44.947
; Path 226
G0 Z0
G0 X41.514 Y45.198
G0 Z2.2
G1 F3000
G1 X41.509 Y44.436
G1 X41.503 Y43.679
G1 X41.502 Y42.927
G1 X41.506 Y42.162
; Path 227
G0 Z0
G0 X41.523 Y42.158
G0 Z2.2
G1 F3000
G1 X40.763 Y42.163
G1 X39.990 Y42.158
G1 X39.237 Y42.164
G1 X38.474 Y42.173
; Path 228
G0 Z0
G0 X38.482 Y42.175
G0 Z2.2
G1 F3000
G1 X38.477 Y42.936
G1 X38.485 Y43.686
G1 X38.491 Y44.447
G1 X38.483 Y45.192
; Path 229
G0 Z0
G0 X38.486 Y45.206
G0 Z2.2
G1 F3000
G1 X39.239 Y45.196
G1 X39.987 Y45.205
G1 X40.749 Y45.205
G1 X41.503 Y45.205
; Path 230
G0 Z0
G0 X41.511 Y46.068
G0 Z2.2
G1 F3000
G1 X41.520 Y46.926
G1 X41.511 Y47.780
; Path 231
G0 Z0
G0 X41.514 Y47.801
G0 Z2.2
G1 F3000
G1 X40.753 Y47.805
G1 X40.000 Y47.804
G1 X39.246 Y47.793
G1 X38.484 Y47.789
; Path 232
G0 Z0
G0 X38.493 Y47.796
G0 Z2.2
G1 F3000
G1 X38.494 Y46.937
G1 X38.499 Y46.070
; Path 233
G0 Z0
G0 X38.495 Y46.048
G0 Z2.2
G1 F3000
G1 X39.252 Y46.044
G1 X40.005 Y46.063
G1 X40.754 Y46.063
G1 X41.523 Y46.066
; Path 234
G0 Z0
G0 X43.245 Y46.483
G0 Z2.2
G1 F3000
G1 X43.237 Y47.200
G1 X43.246 Y47.943
G1 X43.243 Y48.660
; Path 235
G0 Z0
G0 X42.378 Y48.652
G0 Z2.2
G1 F3000
G1 X42.378 Y40.869
; Path 236
G1 X37.622 Y40.869
; Path 237
G1 X37.622 Y48.652
; Path 238
G0 Z0
G0 X38.910 Y48.652
G0 Z2.2
G1 F3000
G1 X38.905 Y47.933
G1 X38.905 Y47.199
G1 X38.921 Y46.480
; Path 239
G0 Z0
G0 X39.792 Y47.335
G0 Z2.2
G1 F3000
G1 X39.783 Y46.888
G1 X39.809 Y46.485
G1 X39.821 Y46.066
G1 X39.779 Y45.605
G1 X39.763 Y45.218
G1 X39.752 Y44.764
G1 X39.756 Y44.318
G1 X39.785 Y43.876
G1 X39.799 Y43.445
G1 X39.787 Y43.048
G1 X39.748 Y42.635
G1 X39.748 Y42.139
G1 X39.808 Y41.753
G1 X39.785 Y41.294
G1 X39.805 Y40.888
G1 X39.774 Y40.451
; Path 240
G0 Z0
G0 X39.791 Y40.437
G0 Z2.2
G1 F3000
G1 X39.794 Y39.621
G1 X39.785 Y38.781
G1 X39.791 Y37.975
G1 X39.788 Y37.156
G1 X39.796 Y36.328
G1 X39.793 Y35.505
G1 X39.782 Y34.696
G1 X39.777 Y33.853
G1 X39.787 Y33.047
G1 X39.784 Y32.222
; Path 241
G0 Z0
G0 X39.772 Y32.221
G0 Z2.2
G1 F3000
G1 X39.344 Y32.899
G1 X38.902 Y33.604
G1 X38.490 Y34.286
G1 X38.044 Y34.971
G1 X37.627 Y35.645
G1 X37.194 Y36.327
G1 X36.753 Y37.015
G1 X36.323 Y37.715
G1 X35.887 Y38.378
G1 X35.466 Y39.069
G1 X35.044 Y39.754
G1 X34.605 Y40.445
; Path 242
G0 Z0
G0 X34.588 Y40.425
G0 Z2.2
G1 F3000
G1 X35.408 Y40.434
G1 X36.259 Y40.421
G1 X37.079 Y40.434
G1 X37.924 Y40.442
G1 X38.743 Y40.438
G1 X39.580 Y40.436
G1 X40.404 Y40.441
G1 X41.248 Y40.426
G1 X42.065 Y40.429
G1 X42.907 Y40.443
G1 X43.735 Y40.449
G1 X44.565 Y40.448
G1 X45.407 Y40.442
; Path 243
G0 Z0
G0 X45.412 Y40.436
G0 Z2.2
G1 F3000
G1 X44.951 Y39.747
G1 X44.463 Y39.063
G1 X43.994 Y38.383
G1 X43.543 Y37.683
G1 X43.056 Y36.998
G1 X42.594 Y36.331
G1 X42.127 Y35.642
G1 X41.650 Y34.953
G1 X41.186 Y34.269
G1 X40.725 Y33.574
G1 X40.234 Y32.893
G1 X39.772 Y32.211
; Path 244
G0 Z0
G0 X39.784 Y31.355
G0 Z2.2
G1 F3000
G1 X33.730 Y40.869
; Path 245
G1 X46.270 Y40.869
; Path 246
G1 X39.784 Y31.355
; Path 247
G0 Z0
G0 X38.477 Y28.318
G0 Z2.2
G1 F3000
G1 X38.023 Y29.028
G1 X37.548 Y29.769
G1 X37.097 Y30.474
G1 X36.625 Y31.207
G1 X36.182 Y31.938
G1 X35.699 Y32.641
G1 X35.246 Y33.370
G1 X34.785 Y34.081
G1 X34.326 Y34.817
G1 X33.856 Y35.534
G1 X33.408 Y36.263
G1 X32.939 Y36.981
G1 X32.492 Y37.695
G1 X32.015 Y38.416
G1 X31.560 Y39.140
; Path 248
G0 Z0
G0 X32.875 Y37.838
G0 Z2.2
G1 F3000
G1 X33.283 Y37.120
G1 X33.692 Y36.389
G1 X34.091 Y35.665
G1 X34.493 Y34.949
G1 X34.888 Y34.223
G1 X35.285 Y33.518
G1 X35.700 Y32.800
G1 X36.088 Y32.060
G1 X36.491 Y31.347
G1 X36.909 Y30.617
G1 X37.318 Y29.894
G1 X37.711 Y29.190
G1 X38.105 Y28.454
G1 X38.520 Y27.738
G1 X38.916 Y27.019
; Path 249
G0 Z0
G0 X39.348 Y25.732
G0 Z2.2
G1 F3000
G1 X38.974 Y26.495
G1 X38.619 Y27.281
G1 X38.233 Y28.047
G1 X37.866 Y28.828
G1 X37.487 Y29.598
G1 X37.138 Y30.369
G1 X36.750 Y31.125
G1 X36.376 Y31.916
G1 X36.027 Y32.677
G1 X35.640 Y33.462
G1 X35.286 Y34.231
G1 X34.916 Y34.995
G1 X34.530 Y35.774
G1 X34.165 Y36.537
; Path 250
G0 Z0
G0 X35.447 Y36.964
G0 Z2.2
G1 F3000
G1 X36.264 Y36.968
G1 X37.101 Y36.972
G1 X37.936 Y36.975
G1 X38.766 Y36.970
G1 X39.592 Y36.957
G1 X40.413 Y36.967
G1 X41.229 Y36.957
G1 X42.050 Y36.972
G1 X42.885 Y36.969
G1 X43.706 Y36.974
G1 X44.544 Y36.966
; Path 251
G0 Z0
G0 X44.542 Y35.258
G0 Z2.2
G1 F3000
G1 X44.236 Y34.446
G1 X43.913 Y33.662
G1 X43.623 Y32.860
G1 X43.299 Y32.056
G1 X42.985 Y31.238
G1 X42.682 Y30.429
G1 X42.370 Y29.628
G1 X42.057 Y28.837
G1 X41.757 Y28.043
G1 X41.449 Y27.230
G1 X41.135 Y26.430
G1 X40.825 Y25.617
G1 X40.525 Y24.830
G1 X40.214 Y24.015
; Path 252
G0 Z0
G0 X39.787 Y22.705
G0 Z2.2
G1 F3000
G1 X39.559 Y23.530
G1 X39.330 Y24.370
G1 X39.073 Y25.196
G1 X38.849 Y26.037
G1 X38.617 Y26.863
G1 X38.375 Y27.701
G1 X38.156 Y28.516
G1 X37.904 Y29.348
G1 X37.694 Y30.178
G1 X37.436 Y31.016
G1 X37.215 Y31.853
G1 X36.969 Y32.682
G1 X36.745 Y33.512
; Path 253
G0 Z0
G0 X37.391 Y34.482
G0 Z2.2
G1 F3000
G1 X36.934 Y35.223
; Path 254
G0 Z0
G0 X35.460 Y35.244
G0 Z2.2
G1 F3000
G1 X35.749 Y34.431
G1 X36.019 Y33.638
G1 X36.291 Y32.822
G1 X36.571 Y32.038
G1 X36.852 Y31.232
G1 X37.115 Y30.422
G1 X37.403 Y29.625
G1 X37.680 Y28.805
G1 X37.958 Y28.004
G1 X38.234 Y27.197
G1 X38.529 Y26.415
G1 X38.795 Y25.592
G1 X39.086 Y24.792
G1 X39.352 Y23.996
; Path 255
G0 Z0
G0 X40.654 Y25.739
G0 Z2.2
G1 F3000
G1 X41.036 Y26.505
G1 X41.387 Y27.289
G1 X41.763 Y28.049
G1 X42.134 Y28.838
G1 X42.500 Y29.594
G1 X42.888 Y30.362
G1 X43.237 Y31.152
G1 X43.612 Y31.917
G1 X43.997 Y32.702
G1 X44.350 Y33.470
G1 X44.731 Y34.226
G1 X45.106 Y35.006
G1 X45.461 Y35.786
G1 X45.843 Y36.555
; Path 256
G0 Z0
G0 X47.140 Y37.843
G0 Z2.2
G1 F3000
G1 X46.740 Y37.119
G1 X46.326 Y36.396
G1 X45.937 Y35.686
G1 X45.518 Y34.955
G1 X45.122 Y34.232
G1 X44.731 Y33.514
G1 X44.322 Y32.811
G1 X43.905 Y32.073
G1 X43.500 Y31.350
G1 X43.108 Y30.641
G1 X42.707 Y29.909
G1 X42.302 Y29.186
G1 X41.898 Y28.482
G1 X41.490 Y27.747
G1 X41.088 Y27.037
; Path 257
G0 Z0
G0 X41.501 Y28.323
G0 Z2.2
G1 F3000
G1 X41.954 Y29.046
G1 X42.418 Y29.767
G1 X42.892 Y30.493
G1 X43.339 Y31.222
G1 X43.805 Y31.926
G1 X44.265 Y32.648
G1 X44.742 Y33.370
G1 X45.184 Y34.086
G1 X45.658 Y34.810
G1 X46.119 Y35.534
G1 X46.568 Y36.271
G1 X47.039 Y36.981
G1 X47.496 Y37.690
G1 X47.962 Y38.419
G1 X48.425 Y39.144
; Path 258
G0 Z0
G0 X49.720 Y39.135
G0 Z2.2
G1 F3000
G1 X49.264 Y38.416
G1 X48.805 Y37.686
G1 X48.349 Y36.971
G1 X47.877 Y36.243
G1 X47.404 Y35.533
G1 X46.951 Y34.818
G1 X46.486 Y34.093
G1 X46.040 Y33.378
G1 X45.565 Y32.643
G1 X45.103 Y31.932
G1 X44.664 Y31.197
G1 X44.201 Y30.492
G1 X43.743 Y29.764
G1 X43.282 Y29.040
G1 X42.808 Y28.319
; Path 259
G0 Z0
G0 X44.112 Y28.338
G0 Z2.2
G1 F3000
G1 X44.581 Y29.050
G1 X45.048 Y29.771
G1 X45.491 Y30.508
G1 X45.951 Y31.215
G1 X46.419 Y31.944
G1 X46.893 Y32.647
G1 X47.356 Y33.375
G1 X47.806 Y34.083
G1 X48.277 Y34.813
G1 X48.717 Y35.546
G1 X49.196 Y36.246
G1 X49.645 Y36.963
G1 X50.122 Y37.698
G1 X50.585 Y38.415
G1 X51.036 Y39.134
; Path 260
G0 Z0
G0 X51.903 Y40.009
G0 Z2.2
G1 F3000
G1 X51.043 Y40.000
G1 X50.208 Y40.002
G1 X49.346 Y40.003
G1 X48.508 Y40.020
G1 X47.658 Y40.009
G1 X46.804 Y40.007
G1 X45.948 Y40.006
G1 X45.107 Y40.017
G1 X44.243 Y40.012
G1 X43.408 Y40.008
G1 X42.542 Y39.996
G1 X41.707 Y39.999
G1 X40.854 Y39.998
G1 X39.988 Y40.021
G1 X39.145 Y40.013
G1 X38.297 Y40.016
G1 X37.443 Y40.019
G1 X36.609 Y40.009
G1 X35.743 Y40.001
G1 X34.909 Y40.011
G1 X34.040 Y39.998
G1 X33.193 Y40.019
G1 X32.353 Y39.999
G1 X31.500 Y40.017
G1 X30.658 Y40.015
G1 X29.802 Y39.996
G1 X28.935 Y39.999
G1 X28.096 Y40.008
; Path 261
G0 Z0
G0 X28.119 Y41.314
G0 Z2.2
G1 F3000
G1 X27.386 Y41.302
G1 X26.671 Y41.299
G1 X25.950 Y41.318
G1 X25.213 Y41.314
G1 X24.503 Y41.299
G1 X23.778 Y41.308
; Path 262
G0 Z0
G0 X22.496 Y40.005
G0 Z2.2
G1 F3000
G1 X22.490 Y40.448
G1 X22.488 Y40.882
; Path 263
G0 Z0
G0 X22.484 Y40.866
G0 Z2.2
G1 F3000
G1 X23.130 Y40.442
G1 X23.780 Y40.012
; Path 264
G0 Z0
G0 X23.784 Y40.004
G0 Z2.2
G1 F3000
G1 X39.784 Y21.409
; Path 265
G1 X56.216 Y40.004
; Path 266
G0 Z0
G0 X56.224 Y40.010
G0 Z2.2
G1 F3000
G1 X56.221 Y40.873
G1 X56.233 Y41.744
G1 X56.228 Y42.591
G1 X56.226 Y43.470
G1 X56.226 Y44.327
G1 X56.221 Y45.199
G1 X56.220 Y46.059
G1 X56.230 Y46.924
G1 X56.219 Y47.787
G1 X56.218 Y48.644
; Path 267
G0 Z0
G0 X56.217 Y49.094
G0 Z2.2
G1 F3000
G1 X56.607 Y49.209
G1 X56.921 Y49.362
G1 X57.320 Y49.534
G1 X57.659 Y49.659
G1 X58.033 Y49.800
G1 X58.369 Y49.959
; Path 268
G0 Z0
G0 X58.370 Y49.971
G0 Z2.2
G1 F3000
G1 X58.691 Y50.003
G1 X59.057 Y50.034
G1 X59.365 Y50.089
G1 X59.726 Y50.093
G1 X60.071 Y50.114
G1 X60.398 Y50.164
G1 X60.711 Y50.202
G1 X61.083 Y50.244
G1 X61.393 Y50.309
G1 X61.729 Y50.324
G1 X62.096 Y50.360
G1 X62.440 Y50.406
G1 X62.776 Y50.458
G1 X63.090 Y50.505
G1 X63.442 Y50.500
G1 X63.797 Y50.562
G1 X64.155 Y50.607
G1 X64.446 Y50.629
G1 X64.846 Y50.685
G1 X65.153 Y50.695
G1 X65.482 Y50.707
G1 X65.799 Y50.725
G1 X66.179 Y50.779
G1 X66.508 Y50.789
G1 X66.855 Y50.791
G1 X67.180 Y50.797
G1 X67.532 Y50.812
G1 X67.862 Y50.825
G1 X68.234 Y50.791
G1 X68.527 Y50.812
G1 X68.905 Y50.808
G1 X69.215 Y50.787
G1 X69.542 Y50.770
G1 X69.858 Y50.749
G1 X70.211 Y50.680
G1 X70.565 Y50.664
G1 X70.869 Y50.594
G1 X71.221 Y50.549
G1 X71.555 Y50.511
G1 X71.915 Y50.466
G1 X72.271 Y50.401
G1 X72.559 Y50.329
G1 X72.897 Y50.241
G1 X73.262 Y50.212
G1 X73.576 Y50.114
G1 X73.937 Y50.086
G1 X74.264 Y49.972
G1 X74.609 Y49.917
G1 X74.970 Y49.836
G1 X75.276 Y49.782
G1 X75.637 Y49.679
G1 X75.956 Y49.600
G1 X76.266 Y49.532
G1 X76.663 Y49.408
G1 X76.983 Y49.341
G1 X77.302 Y49.277
G1 X77.649 Y49.194
G1 X78.009 Y49.116
G1 X78.336 Y49.029
G1 X78.649 Y48.965
G1 X78.995 Y48.899
G1 X79.357 Y48.827
G1 X79.646 Y48.779
G1 X79.996 Y48.682
; Path 269
G0 Z0
G0 X77.844 Y47.797
G0 Z2.2
G1 F3000
G1 X77.407 Y47.144
G1 X76.982 Y46.487
; Path 270
G0 Z0
G0 X76.970 Y46.490
G0 Z2.2
G1 F3000
G1 X76.555 Y47.145
G1 X76.118 Y47.783
; Path 271
G0 Z0
G0 X71.783 Y47.518
G0 Z2.2
G1 F3000
G1 X71.009 Y47.137
; Path 272
G0 Z0
G0 X69.620 Y49.900
G0 Z2.2
G1 F3000
G1 X68.744 Y49.963
; Path 273
G0 Z0
G0 X64.463 Y45.716
G0 Z2.2
G1 F3000
G1 X63.583 Y45.552
; Path 274
G0 Z0
G0 X60.145 Y50.826
G0 Z2.2
G1 F3000
G1 X61.007 Y50.883
; Path 275
G0 Z0
G0 X62.293 Y50.338
G0 Z2.2
G1 F3000
G1 X63.154 Y50.429
; Path 276
G0 Z0
G0 X65.241 Y51.601
G0 Z2.2
G1 F3000
G1 X64.407 Y51.706
; Path 277
G0 Z0
G0 X64.872 Y52.517
G0 Z2.2
G1 F3000
G1 X64.804 Y52.431
G1 X64.698 Y52.284
G1 X64.657 Y52.174
G1 X64.617 Y52.075
G1 X64.494 Y51.941
G1 X64.443 Y51.801
G1 X64.344 Y51.652
G1 X64.300 Y51.540
G1 X64.229 Y51.416
G1 X64.159 Y51.265
G1 X64.082 Y51.157
G1 X64.015 Y51.037
G1 X63.974 Y50.927
G1 X63.842 Y50.789
G1 X63.801 Y50.681
G1 X63.705 Y50.588
G1 X63.665 Y50.493
G1 X63.586 Y50.368
G1 X63.515 Y50.296
G1 X63.473 Y50.184
G1 X63.370 Y50.114
G1 X63.278 Y50.024
G1 X63.253 Y50.029
G1 X63.153 Y49.937
G1 X63.102 Y49.878
G1 X63.019 Y49.872
G1 X62.935 Y49.849
G1 X62.857 Y49.857
G1 X62.795 Y49.827
G1 X62.715 Y49.839
G1 X62.632 Y49.886
G1 X62.567 Y49.886
G1 X62.495 Y49.888
G1 X62.396 Y49.927
G1 X62.320 Y49.962
G1 X62.274 Y49.979
G1 X62.222 Y49.989
G1 X62.128 Y50.079
G1 X62.052 Y50.094
G1 X62.012 Y50.154
G1 X61.898 Y50.204
G1 X61.831 Y50.215
G1 X61.738 Y50.285
G1 X61.706 Y50.300
G1 X61.609 Y50.323
G1 X61.527 Y50.365
G1 X61.469 Y50.354
G1 X61.388 Y50.402
; Path 278
G0 Z0
G0 X61.436 Y50.380
G0 Z2.2
G1 F3000
G1 X61.331 Y50.321
G1 X61.268 Y50.313
G1 X61.215 Y50.242
G1 X61.138 Y50.162
G1 X61.086 Y50.128
G1 X60.989 Y50.061
G1 X60.887 Y49.977
G1 X60.864 Y49.942
G1 X60.762 Y49.863
G1 X60.663 Y49.819
G1 X60.645 Y49.736
G1 X60.536 Y49.674
G1 X60.432 Y49.656
G1 X60.391 Y49.587
G1 X60.313 Y49.519
G1 X60.267 Y49.490
G1 X60.182 Y49.450
G1 X60.096 Y49.422
G1 X60.003 Y49.392
G1 X59.961 Y49.425
G1 X59.887 Y49.410
G1 X59.831 Y49.463
G1 X59.744 Y49.469
G1 X59.689 Y49.508
G1 X59.642 Y49.599
G1 X59.547 Y49.648
G1 X59.505 Y49.731
G1 X59.421 Y49.836
G1 X59.372 Y49.979
G1 X59.331 Y50.065
G1 X59.242 Y50.235
G1 X59.254 Y50.309
G1 X59.166 Y50.482
G1 X59.084 Y50.637
G1 X59.081 Y50.832
G1 X59.007 Y50.959
G1 X58.945 Y51.125
G1 X58.903 Y51.323
G1 X58.851 Y51.470
G1 X58.818 Y51.617
G1 X58.762 Y51.805
G1 X58.696 Y51.988
G1 X58.664 Y52.182
G1 X58.564 Y52.331
G1 X58.539 Y52.490
G1 X58.505 Y52.653
G1 X58.460 Y52.826
G1 X58.378 Y52.950
; Path 279
G0 Z0
G0 X60.520 Y53.001
G0 Z2.2
G1 F3000
G1 X60.727 Y52.875
G1 X60.868 Y52.777
G1 X61.061 Y52.651
G1 X61.217 Y52.532
G1 X61.387 Y52.428
G1 X61.601 Y52.266
G1 X61.766 Y52.141
G1 X61.957 Y52.000
G1 X62.141 Y51.869
G1 X62.353 Y51.721
G1 X62.510 Y51.623
G1 X62.682 Y51.478
G1 X62.836 Y51.325
G1 X63.011 Y51.256
G1 X63.222 Y51.114
G1 X63.386 Y51.010
G1 X63.567 Y50.891
G1 X63.763 Y50.798
G1 X63.912 Y50.696
G1 X64.136 Y50.644
G1 X64.304 Y50.550
G1 X64.504 Y50.483
G1 X64.686 Y50.435
G1 X64.845 Y50.390
G1 X65.046 Y50.338
G1 X65.192 Y50.325
G1 X65.387 Y50.332
G1 X65.590 Y50.346
G1 X65.767 Y50.332
G1 X65.929 Y50.362
G1 X66.115 Y50.365
G1 X66.294 Y50.399
G1 X66.472 Y50.460
G1 X66.631 Y50.530
G1 X66.807 Y50.527
G1 X67.014 Y50.606
G1 X67.217 Y50.643
G1 X67.356 Y50.716
G1 X67.557 Y50.778
G1 X67.742 Y50.861
G1 X67.949 Y50.888
G1 X68.100 Y50.958
G1 X68.286 Y51.014
G1 X68.437 Y51.061
G1 X68.643 Y51.124
G1 X68.855 Y51.199
G1 X69.014 Y51.201
G1 X69.186 Y51.256
; Path 280
G0 Z0
G0 X69.160 Y51.253
G0 Z2.2
G1 F3000
G1 X69.311 Y51.207
G1 X69.493 Y51.217
G1 X69.708 Y51.182
G1 X69.897 Y51.172
G1 X70.064 Y51.099
G1 X70.256 Y51.089
G1 X70.409 Y51.069
G1 X70.595 Y51.008
G1 X70.805 Y50.987
G1 X70.975 Y50.971
G1 X71.165 Y50.894
G1 X71.354 Y50.889
G1 X71.518 Y50.868
G1 X71.716 Y50.857
G1 X71.902 Y50.809
G1 X72.058 Y50.775
G1 X72.250 Y50.796
G1 X72.449 Y50.759
G1 X72.610 Y50.737
G1 X72.835 Y50.728
G1 X72.996 Y50.753
G1 X73.211 Y50.748
G1 X73.358 Y50.776
G1 X73.540 Y50.803
G1 X73.697 Y50.810
G1 X73.893 Y50.892
G1 X74.084 Y50.918
G1 X74.291 Y50.959
G1 X74.437 Y51.003
G1 X74.625 Y51.090
G1 X74.802 Y51.195
G1 X75.018 Y51.262
G1 X75.166 Y51.305
G1 X75.350 Y51.389
G1 X75.509 Y51.442
G1 X75.705 Y51.550
G1 X75.916 Y51.604
G1 X76.042 Y51.758
G1 X76.245 Y51.813
G1 X76.427 Y51.895
G1 X76.596 Y51.964
G1 X76.784 Y52.080
G1 X76.980 Y52.193
G1 X77.154 Y52.268
G1 X77.323 Y52.338
G1 X77.471 Y52.402
G1 X77.717 Y52.485
G1 X77.863 Y52.575
; Path 281
G0 Z0
G0 X78.488 Y50.694
G0 Z2.2
G1 F3000
G1 X77.948 Y50.014
; Path 282
G0 Z0
G0 X78.259 Y49.509
G0 Z2.2
G1 F3000
G1 X77.827 Y48.783
G1 X77.405 Y48.076
G1 X76.979 Y47.359
; Path 283
G0 Z0
G0 X76.962 Y47.354
G0 Z2.2
G1 F3000
G1 X76.541 Y48.059
G1 X76.123 Y48.796
G1 X75.684 Y49.506
; Path 284
G0 Z0
G0 X75.280 Y50.362
G0 Z2.2
G1 F3000
G1 X76.086 Y50.364
; Path 285
G0 Z0
G0 X75.741 Y49.933
G0 Z2.2
G1 F3000
G1 X75.626 Y50.798
; Path 286
G0 Z0
G0 X73.048 Y52.044
G0 Z2.2
G1 F3000
G1 X73.923 Y52.140
; Path 287
G0 Z0
G0 X75.110 Y52.978
G0 Z2.2
G1 F3000
G1 X75.363 Y52.097
; Path 288
G0 Z0
G0 X75.241 Y51.684
G0 Z2.2
G1 F3000
G1 X75.682 Y51.130
G1 X76.105 Y50.604
G1 X76.534 Y50.045
G1 X76.976 Y49.513
; Path 289
G0 Z0
G0 X76.967 Y49.508
G0 Z2.2
G1 F3000
G1 X77.392 Y50.052
G1 X77.824 Y50.585
G1 X78.276 Y51.149
G1 X78.698 Y51.686
; Path 290
G0 Z0
G0 X78.384 Y52.215
G0 Z2.2
G1 F3000
G1 X79.012 Y52.825
; Path 291
G0 Z0
G0 X79.140 Y53.835
G0 Z2.2
G1 F3000
G1 X78.594 Y53.307
G1 X78.043 Y52.765
G1 X77.508 Y52.238
G1 X76.966 Y51.689
; Path 292
G0 Z0
G0 X76.969 Y51.680
G0 Z2.2
G1 F3000
G1 X76.426 Y52.219
G1 X75.885 Y52.763
G1 X75.348 Y53.314
G1 X74.824 Y53.842
; Path 293
G0 Z0
G0 X74.373 Y55.142
G0 Z2.2
G1 F3000
G1 X75.011 Y54.813
G1 X75.680 Y54.492
G1 X76.304 Y54.172
G1 X76.961 Y53.845
; Path 294
G0 Z0
G0 X76.980 Y53.842
G0 Z2.2
G1 F3000
G1 X77.636 Y54.163
G1 X78.273 Y54.503
G1 X78.916 Y54.827
G1 X79.558 Y55.143
; Path 295
G0 Z0
G0 X76.977 Y55.138
G0 Z2.2
G1 F3000
G1 X76.987 Y54.263
G1 X76.975 Y53.399
G1 X76.989 Y52.533
G1 X76.975 Y51.678
G1 X76.972 Y50.805
G1 X76.972 Y49.954
G1 X76.967 Y49.093
G1 X76.972 Y48.219
G1 X76.982 Y47.343
G1 X76.969 Y46.500
G1 X76.978 Y45.626
; Path 296
G0 Z0
G0 X78.160 Y44.651
G0 Z2.2
G1 F3000
G1 X77.629 Y43.993
; Path 297
G0 Z0
G0 X75.965 Y40.321
G0 Z2.2
G1 F3000
G1 X75.353 Y39.713
; Path 298
G0 Z0
G0 X73.520 Y35.668
G0 Z2.2
G1 F3000
G1 X73.520 Y34.818
G1 X73.517 Y33.989
G1 X73.528 Y33.147
G1 X73.522 Y32.300
G1 X73.515 Y31.469
G1 X73.527 Y30.629
G1 X73.531 Y29.790
G1 X73.515 Y28.933
G1 X73.518 Y28.089
G1 X73.520 Y27.251
G1 X73.504 Y26.426
G1 X73.516 Y25.575
G1 X73.528 Y24.744
G1 X73.528 Y23.902
G1 X73.509 Y23.047
G1 X73.509 Y22.215
G1 X73.504 Y21.373
G1 X73.510 Y20.519
G1 X73.514 Y19.685
; Path 299
G0 Z0
G0 X74.383 Y19.673
G0 Z2.2
G1 F3000
G1 X75.034 Y19.245
G1 X75.681 Y18.814
; Path 300
G0 Z0
G0 X75.682 Y18.807
G0 Z2.2
G1 F3000
G1 X76.336 Y19.235
G1 X76.982 Y19.685
; Path 301
G0 Z0
G0 X76.535 Y18.812
G0 Z2.2
G1 F3000
G1 X76.106 Y18.370
G1 X75.682 Y17.945
; Path 302
G0 Z0
G0 X75.674 Y17.943
G0 Z2.2
G1 F3000
G1 X75.241 Y18.363
G1 X74.807 Y18.804
; Path 303
G0 Z0
G0 X75.666 Y19.682
G0 Z2.2
G1 F3000
G1 X75.676 Y19.029
G1 X75.659 Y18.368
G1 X75.659 Y17.729
G1 X75.669 Y17.073
; Path 304
G0 Z0
G0 X76.060 Y16.318
G0 Z2.2
G1 F3000
G1 X75.285 Y16.055
; Path 305
G0 Z0
G0 X75.900 Y6.702
G0 Z2.2
G1 F3000
G1 X75.684 Y6.918
G1 X75.468 Y6.702
G1 X75.684 Y6.486
G1 X75.900 Y6.702
; Path 306
G0 Z0
G0 X73.730 Y3.247
G0 Z2.2
G1 F3000
G1 X73.514 Y3.463
G1 X73.297 Y3.247
G1 X73.514 Y3.031
G1 X73.730 Y3.247
; Path 307
G0 Z0
G0 X74.736 Y0.474
G0 Z2.2
G1 F3000
G1 X74.041 Y-0.000
; Path 308
G0 Z0
G0 X78.042 Y2.378
G0 Z2.2
G1 F3000
G1 X77.826 Y2.594
G1 X77.610 Y2.378
G1 X77.826 Y2.162
G1 X78.042 Y2.378
; Path 309
G0 Z0
G0 X76.647 Y5.104
G0 Z2.2
G1 F3000
G1 X77.241 Y5.763
; Path 310
G0 Z0
G0 X78.438 Y8.099
G0 Z2.2
G1 F3000
G1 X78.984 Y8.753
; Path 311
G0 Z0
G0 X78.468 Y11.505
G0 Z2.2
G1 F3000
G1 X78.892 Y12.277
; Path 312
G0 Z0
G0 X80.000 Y18.382
G0 Z2.2
G1 F3000
G1 X69.189 Y9.734
; Path 313
G1 X58.378 Y18.382
; Path 314
G0 Z0
G0 X62.333 Y18.132
G0 Z2.2
G1 F3000
G1 X63.065 Y18.618
; Path 315
G0 Z0
G0 X64.865 Y18.382
G0 Z2.2
G1 F3000
G1 X54.054 Y6.707
; Path 316
G1 X43.243 Y18.382
; Path 317
G0 Z0
G0 X42.887 Y17.359
G0 Z2.2
G1 F3000
G1 X43.559 Y16.844
; Path 318
G0 Z0
G0 X46.271 Y19.290
G0 Z2.2
G1 F3000
G1 X47.099 Y19.307
; Path 319
G0 Z0
G0 X47.576 Y20.557
G0 Z2.2
G1 F3000
G1 X47.563 Y21.270
G1 X47.568 Y22.004
G1 X47.565 Y22.711
; Path 320
G0 Z0
G0 X48.427 Y22.710
G0 Z2.2
G1 F3000
G1 X48.443 Y23.421
G1 X48.438 Y24.141
G1 X48.438 Y24.862
; Path 321
G0 Z0
G0 X47.571 Y24.867
G0 Z2.2
G1 F3000
G1 X47.570 Y25.592
G1 X47.561 Y26.300
G1 X47.571 Y27.032
; Path 322
G0 Z0
G0 X48.009 Y28.333
G0 Z2.2
G1 F3000
G1 X48.467 Y29.049
G1 X48.939 Y29.778
G1 X49.388 Y30.504
G1 X49.858 Y31.217
G1 X50.307 Y31.926
G1 X50.783 Y32.659
G1 X51.228 Y33.378
G1 X51.694 Y34.111
G1 X52.150 Y34.816
G1 X52.620 Y35.540
G1 X53.060 Y36.261
G1 X53.539 Y36.980
G1 X54.004 Y37.695
G1 X54.466 Y38.432
G1 X54.914 Y39.151
; Path 323
G0 Z0
G0 X53.816 Y36.617
G0 Z2.2
G1 F3000
G1 X54.349 Y37.330
; Path 324
G0 Z0
G0 X52.158 Y35.154
G0 Z2.2
G1 F3000
G1 X51.627 Y34.472
; Path 325
G0 Z0
G0 X50.142 Y32.557
G0 Z2.2
G1 F3000
G1 X49.311 Y32.716
; Path 326
G0 Z0
G0 X47.701 Y30.912
G0 Z2.2
G1 F3000
G1 X47.421 Y30.123
; Path 327
G0 Z0
G0 X49.717 Y30.070
G0 Z2.2
G1 F3000
G1 X49.715 Y29.276
G1 X49.705 Y28.476
G1 X49.709 Y27.693
G1 X49.705 Y26.911
G1 X49.710 Y26.094
G1 X49.707 Y25.316
G1 X49.723 Y24.512
G1 X49.712 Y23.715
G1 X49.723 Y22.923
G1 X49.723 Y22.150
G1 X49.721 Y21.336
G1 X49.718 Y20.553
; Path 328
G0 Z0
G0 X49.742 Y20.551
G0 Z2.2
G1 F3000
G1 X49.010 Y20.540
G1 X48.307 Y20.537
G1 X47.577 Y20.547
G1 X46.861 Y20.540
G1 X46.120 Y20.546
G1 X45.404 Y20.543
; Path 329
G0 Z0
G0 X45.417 Y20.539
G0 Z2.2
G1 F3000
G1 X45.427 Y21.404
G1 X45.427 Y22.266
G1 X45.418 Y23.136
G1 X45.427 Y23.987
G1 X45.408 Y24.854
G1 X45.425 Y25.734
G1 X45.404 Y26.591
G1 X45.424 Y27.460
G1 X45.417 Y28.318
; Path 330
G0 Z0
G0 X45.399 Y28.332
G0 Z2.2
G1 F3000
G1 X45.863 Y29.058
G1 X46.321 Y29.781
G1 X46.783 Y30.502
G1 X47.254 Y31.215
G1 X47.695 Y31.925
G1 X48.173 Y32.650
G1 X48.642 Y33.378
G1 X49.097 Y34.106
G1 X49.557 Y34.814
G1 X50.017 Y35.537
G1 X50.488 Y36.269
G1 X50.930 Y36.969
G1 X51.392 Y37.690
G1 X51.849 Y38.409
G1 X52.323 Y39.142
; Path 331
G0 Z0
G0 X53.630 Y39.145
G0 Z2.2
G1 F3000
G1 X53.156 Y38.417
G1 X52.696 Y37.698
G1 X52.246 Y36.971
G1 X51.791 Y36.267
G1 X51.332 Y35.547
G1 X50.865 Y34.824
G1 X50.393 Y34.112
G1 X49.936 Y33.382
G1 X49.467 Y32.649
G1 X49.018 Y31.944
G1 X48.542 Y31.207
G1 X48.082 Y30.485
G1 X47.634 Y29.786
G1 X47.158 Y29.051
G1 X46.698 Y28.334
; Path 332
G0 Z0
G0 X45.646 Y28.682
G0 Z2.2
G1 F3000
G1 X45.137 Y27.971
; Path 333
G0 Z0
G0 X45.407 Y27.022
G0 Z2.2
G1 F3000
G1 X46.262 Y27.039
G1 X47.121 Y27.038
G1 X48.000 Y27.044
G1 X48.864 Y27.043
G1 X49.718 Y27.041
; Path 334
G0 Z0
G0 X49.737 Y24.864
G0 Z2.2
G1 F3000
G1 X49.010 Y24.876
G1 X48.303 Y24.853
G1 X47.565 Y24.853
G1 X46.837 Y24.866
G1 X46.125 Y24.859
G1 X45.401 Y24.866
; Path 335
G0 Z0
G0 X46.690 Y24.865
G0 Z2.2
G1 F3000
G1 X46.704 Y24.141
G1 X46.704 Y23.429
G1 X46.703 Y22.701
; Path 336
G0 Z0
G0 X45.411 Y22.695
G0 Z2.2
G1 F3000
G1 X46.280 Y22.695
G1 X47.126 Y22.696
G1 X47.989 Y22.697
G1 X48.867 Y22.691
G1 X49.718 Y22.702
; Path 337
G0 Z0
G0 X50.594 Y20.553
G0 Z2.2
G1 F3000
G1 X50.591 Y20.112
G1 X50.585 Y19.690
; Path 338
G0 Z0
G0 X50.605 Y19.692
G0 Z2.2
G1 F3000
G1 X49.859 Y19.687
G1 X49.094 Y19.689
G1 X48.323 Y19.687
G1 X47.576 Y19.668
G1 X46.823 Y19.689
G1 X46.050 Y19.685
G1 X45.310 Y19.666
G1 X44.543 Y19.670
; Path 339
G0 Z0
G0 X44.543 Y19.687
G0 Z2.2
G1 F3000
G1 X44.538 Y20.099
G1 X44.548 Y20.532
; Path 340
G0 Z0
G0 X44.539 Y20.551
G0 Z2.2
G1 F3000
G1 X45.301 Y20.549
G1 X46.056 Y20.545
G1 X46.810 Y20.556
G1 X47.573 Y20.529
G1 X48.321 Y20.528
G1 X49.095 Y20.526
G1 X49.844 Y20.546
G1 X50.598 Y20.532
; Path 341
G0 Z0
G0 X50.142 Y20.330
G0 Z2.2
G1 F3000
G1 X49.372 Y20.740
; Path 342
G0 Z0
G0 X47.573 Y19.697
G0 Z2.2
G1 F3000
G1 X47.635 Y19.649
G1 X47.650 Y19.542
G1 X47.696 Y19.480
G1 X47.750 Y19.443
G1 X47.774 Y19.368
G1 X47.844 Y19.264
G1 X47.925 Y19.210
G1 X47.968 Y19.114
G1 X48.001 Y19.048
G1 X48.038 Y18.944
G1 X48.098 Y18.875
G1 X48.153 Y18.831
G1 X48.167 Y18.732
G1 X48.218 Y18.688
G1 X48.286 Y18.615
G1 X48.329 Y18.528
G1 X48.358 Y18.481
G1 X48.384 Y18.398
G1 X48.409 Y18.326
G1 X48.407 Y18.244
G1 X48.433 Y18.182
G1 X48.420 Y18.107
G1 X48.397 Y18.038
G1 X48.417 Y17.966
G1 X48.361 Y17.922
G1 X48.368 Y17.804
G1 X48.327 Y17.751
G1 X48.251 Y17.693
G1 X48.222 Y17.622
G1 X48.173 Y17.535
G1 X48.088 Y17.485
G1 X48.029 Y17.408
G1 X47.970 Y17.320
G1 X47.900 Y17.247
G1 X47.787 Y17.179
G1 X47.732 Y17.105
G1 X47.631 Y17.040
G1 X47.574 Y16.934
G1 X47.474 Y16.889
G1 X47.418 Y16.833
G1 X47.298 Y16.779
G1 X47.211 Y16.674
G1 X47.133 Y16.579
G1 X47.022 Y16.558
G1 X46.958 Y16.459
G1 X46.852 Y16.371
G1 X46.825 Y16.294
G1 X46.730 Y16.244
; Path 343
G0 Z0
G0 X46.715 Y16.213
G0 Z2.2
G1 F3000
G1 X46.659 Y16.171
G1 X46.603 Y16.050
G1 X46.520 Y15.999
G1 X46.466 Y15.901
G1 X46.354 Y15.864
G1 X46.282 Y15.787
G1 X46.225 Y15.684
G1 X46.129 Y15.671
G1 X46.027 Y15.574
G1 X45.919 Y15.501
G1 X45.891 Y15.454
G1 X45.780 Y15.361
G1 X45.743 Y15.322
G1 X45.608 Y15.236
G1 X45.568 Y15.148
G1 X45.528 Y15.054
G1 X45.500 Y15.007
G1 X45.415 Y14.934
G1 X45.384 Y14.858
G1 X45.381 Y14.765
G1 X45.349 Y14.719
G1 X45.387 Y14.664
G1 X45.382 Y14.550
G1 X45.393 Y14.502
G1 X45.448 Y14.452
G1 X45.541 Y14.341
G1 X45.566 Y14.283
G1 X45.635 Y14.209
G1 X45.729 Y14.151
G1 X45.850 Y14.063
G1 X45.969 Y13.999
G1 X46.064 Y13.908
G1 X46.219 Y13.842
G1 X46.358 Y13.789
G1 X46.516 Y13.686
G1 X46.649 Y13.620
G1 X46.810 Y13.531
G1 X46.976 Y13.488
G1 X47.113 Y13.397
G1 X47.292 Y13.328
G1 X47.402 Y13.258
G1 X47.585 Y13.174
G1 X47.731 Y13.118
G1 X47.883 Y13.039
G1 X48.040 Y12.952
G1 X48.166 Y12.868
G1 X48.339 Y12.834
G1 X48.452 Y12.730
; Path 344
G0 Z0
G0 X48.455 Y12.757
G0 Z2.2
G1 F3000
G1 X48.545 Y12.713
G1 X48.589 Y12.642
G1 X48.647 Y12.539
G1 X48.760 Y12.470
G1 X48.826 Y12.391
G1 X48.889 Y12.321
G1 X48.988 Y12.277
G1 X49.073 Y12.152
G1 X49.152 Y12.102
G1 X49.239 Y12.003
G1 X49.348 Y11.963
G1 X49.404 Y11.884
G1 X49.448 Y11.814
G1 X49.543 Y11.707
G1 X49.616 Y11.666
G1 X49.637 Y11.612
G1 X49.723 Y11.528
G1 X49.758 Y11.448
G1 X49.791 Y11.390
G1 X49.807 Y11.308
G1 X49.798 Y11.231
G1 X49.757 Y11.127
G1 X49.737 Y11.072
G1 X49.709 Y11.014
G1 X49.615 Y10.975
G1 X49.566 Y10.855
G1 X49.468 Y10.799
G1 X49.346 Y10.751
G1 X49.202 Y10.641
G1 X49.096 Y10.584
G1 X48.970 Y10.518
G1 X48.754 Y10.413
G1 X48.624 Y10.370
G1 X48.436 Y10.317
G1 X48.287 Y10.253
G1 X48.081 Y10.156
G1 X47.881 Y10.060
G1 X47.695 Y9.987
G1 X47.498 Y9.942
G1 X47.268 Y9.883
G1 X47.094 Y9.825
G1 X46.905 Y9.728
G1 X46.708 Y9.691
G1 X46.501 Y9.619
G1 X46.332 Y9.515
G1 X46.147 Y9.422
G1 X45.974 Y9.355
G1 X45.810 Y9.301
; Path 345
G0 Z0
G0 X45.830 Y9.301
G0 Z2.2
G1 F3000
G1 X45.772 Y9.259
G1 X45.680 Y9.164
G1 X45.626 Y9.083
G1 X45.549 Y9.022
G1 X45.450 Y8.924
G1 X45.363 Y8.864
G1 X45.235 Y8.819
G1 X45.197 Y8.712
G1 X45.077 Y8.646
G1 X44.956 Y8.542
G1 X44.889 Y8.467
G1 X44.802 Y8.427
G1 X44.751 Y8.367
G1 X44.638 Y8.274
G1 X44.575 Y8.209
G1 X44.546 Y8.124
G1 X44.444 Y8.087
G1 X44.430 Y7.991
G1 X44.406 Y7.929
G1 X44.419 Y7.861
G1 X44.404 Y7.774
G1 X44.479 Y7.682
G1 X44.510 Y7.657
G1 X44.531 Y7.557
G1 X44.603 Y7.510
G1 X44.741 Y7.405
G1 X44.836 Y7.342
G1 X45.018 Y7.302
G1 X45.111 Y7.211
G1 X45.295 Y7.127
G1 X45.518 Y7.030
G1 X45.699 Y6.955
G1 X45.872 Y6.913
G1 X46.092 Y6.863
G1 X46.279 Y6.800
G1 X46.532 Y6.699
G1 X46.782 Y6.602
G1 X47.037 Y6.589
G1 X47.239 Y6.485
G1 X47.508 Y6.411
G1 X47.720 Y6.370
G1 X47.958 Y6.272
G1 X48.195 Y6.181
G1 X48.425 Y6.142
G1 X48.653 Y6.058
G1 X48.864 Y6.003
G1 X49.097 Y5.888
G1 X49.289 Y5.844
; Path 346
G0 Z0
G0 X49.291 Y5.826
G0 Z2.2
G1 F3000
G1 X49.396 Y5.723
G1 X49.484 Y5.654
G1 X49.546 Y5.609
G1 X49.656 Y5.545
G1 X49.755 Y5.433
G1 X49.859 Y5.392
G1 X49.964 Y5.298
G1 X50.114 Y5.238
G1 X50.196 Y5.175
G1 X50.293 Y5.101
G1 X50.413 Y5.038
G1 X50.522 Y4.957
G1 X50.609 Y4.883
G1 X50.673 Y4.781
G1 X50.800 Y4.740
G1 X50.862 Y4.679
G1 X50.944 Y4.580
G1 X50.995 Y4.523
G1 X51.029 Y4.471
G1 X51.051 Y4.363
G1 X51.074 Y4.307
G1 X51.077 Y4.226
G1 X51.001 Y4.171
G1 X50.999 Y4.092
G1 X50.921 Y3.995
G1 X50.861 Y3.965
G1 X50.747 Y3.877
G1 X50.584 Y3.779
G1 X50.492 Y3.703
G1 X50.343 Y3.663
G1 X50.168 Y3.591
G1 X49.990 Y3.529
G1 X49.821 Y3.450
G1 X49.605 Y3.389
G1 X49.429 Y3.339
G1 X49.216 Y3.238
G1 X49.012 Y3.183
G1 X48.815 Y3.122
G1 X48.565 Y3.025
G1 X48.332 Y2.976
G1 X48.147 Y2.900
G1 X47.902 Y2.813
G1 X47.709 Y2.735
G1 X47.508 Y2.698
G1 X47.262 Y2.600
G1 X47.068 Y2.505
G1 X46.858 Y2.469
G1 X46.681 Y2.387
; Path 347
G0 Z0
G0 X57.980 Y2.306
G0 Z2.2
G1 F3000
G1 X58.819 Y2.428
; Path 348
G0 Z0
G0 X60.757 Y0.220
G0 Z2.2
G1 F3000
G1 X60.541 Y0.004
G1 X60.324 Y0.220
G1 X60.541 Y0.436
G1 X60.757 Y0.220
; Path 349
G0 Z0
G0 X65.081 Y1.517
G0 Z2.2
G1 F3000
G1 X64.865 Y1.301
G1 X64.649 Y1.517
G1 X64.865 Y1.734
G1 X65.081 Y1.517
; Path 350
G0 Z0
G0 X62.909 Y4.109
G0 Z2.2
G1 F3000
G1 X62.693 Y3.893
G1 X62.477 Y4.109
G1 X62.693 Y4.325
G1 X62.909 Y4.109
; Path 351
G0 Z0
G0 X61.854 Y6.892
G0 Z2.2
G1 F3000
G1 X61.016 Y6.550
; Path 352
G0 Z0
G0 X65.315 Y5.243
G0 Z2.2
G1 F3000
G1 X66.091 Y5.574
; Path 353
G0 Z0
G0 X67.954 Y4.801
G0 Z2.2
G1 F3000
G1 X68.714 Y5.144
; Path 354
G0 Z0
G0 X69.609 Y5.994
G0 Z2.2
G1 F3000
G1 X68.793 Y5.693
; Path 355
G0 Z0
G0 X69.412 Y1.076
G0 Z2.2
G1 F3000
G1 X69.196 Y0.860
G1 X68.980 Y1.076
G1 X69.196 Y1.292
G1 X69.412 Y1.076
; Path 356
G0 Z0
G0 X67.947 Y3.054
G0 Z2.2
G1 F3000
G1 X68.742 Y3.433
; Path 357
G0 Z0
G0 X68.763 Y3.943
G0 Z2.2
G1 F3000
G1 X69.524 Y4.338
; Path 358
G0 Z0
G0 X69.673 Y4.789
G0 Z2.2
G1 F3000
G1 X70.479 Y5.151
; Path 359
G0 Z0
G0 X70.886 Y7.375
G0 Z2.2
G1 F3000
G1 X71.761 Y7.686
; Path 360
G0 Z0
G0 X72.336 Y10.811
G0 Z2.2
G1 F3000
G1 X72.984 Y11.370
; Path 361
G0 Z0
G0 X71.348 Y14.924
G0 Z2.2
G1 F3000
G1 X71.353 Y15.712
G1 X71.359 Y16.506
G1 X71.354 Y17.305
G1 X71.358 Y18.108
G1 X71.335 Y18.879
G1 X71.347 Y19.682
; Path 362
G0 Z0
G0 X71.360 Y17.948
G0 Z2.2
G1 F3000
G1 X70.770 Y18.534
G1 X70.204 Y19.088
G1 X69.628 Y19.675
; Path 363
G0 Z0
G0 X70.045 Y17.942
G0 Z2.2
G1 F3000
G1 X70.484 Y17.510
G1 X70.920 Y17.073
G1 X71.360 Y16.652
; Path 364
G0 Z0
G0 X71.360 Y15.357
G0 Z2.2
G1 F3000
G1 X70.918 Y15.793
G1 X70.492 Y16.229
; Path 365
G0 Z0
G0 X71.360 Y15.364
G0 Z2.2
G1 F3000
G1 X71.795 Y15.789
G1 X72.212 Y16.210
; Path 366
G0 Z0
G0 X72.661 Y17.954
G0 Z2.2
G1 F3000
G1 X72.216 Y17.520
G1 X71.784 Y17.083
G1 X71.344 Y16.656
; Path 367
G0 Z0
G0 X71.349 Y17.957
G0 Z2.2
G1 F3000
G1 X71.932 Y18.520
G1 X72.502 Y19.120
G1 X73.071 Y19.685
; Path 368
G0 Z0
G0 X72.645 Y21.409
G0 Z2.2
G1 F3000
G1 X73.090 Y20.986
G1 X73.525 Y20.546
; Path 369
G0 Z0
G0 X73.514 Y20.549
G0 Z2.2
G1 F3000
G1 X73.941 Y20.965
G1 X74.377 Y21.403
; Path 370
G0 Z0
G0 X75.234 Y23.566
G0 Z2.2
G1 F3000
G1 X74.811 Y23.035
G1 X74.374 Y22.474
G1 X73.935 Y21.956
G1 X73.507 Y21.407
; Path 371
G0 Z0
G0 X73.515 Y21.399
G0 Z2.2
G1 F3000
G1 X73.078 Y21.939
G1 X72.649 Y22.491
G1 X72.234 Y23.032
G1 X71.796 Y23.572
; Path 372
G0 Z0
G0 X72.902 Y26.708
G0 Z2.2
G1 F3000
G1 X72.364 Y27.411
; Path 373
G0 Z0
G0 X71.459 Y27.287
G0 Z2.2
G1 F3000
G1 X72.050 Y26.683
; Path 374
G0 Z0
G0 X71.340 Y26.167
G0 Z2.2
G1 F3000
G1 X71.890 Y25.515
G1 X72.419 Y24.859
G1 X72.980 Y24.224
G1 X73.518 Y23.566
; Path 375
G0 Z0
G0 X73.523 Y23.565
G0 Z2.2
G1 F3000
G1 X74.071 Y24.211
G1 X74.590 Y24.852
G1 X75.130 Y25.522
G1 X75.664 Y26.158
; Path 376
G0 Z0
G0 X74.943 Y26.712
G0 Z2.2
G1 F3000
G1 X75.537 Y27.380
; Path 377
G0 Z0
G0 X75.974 Y29.485
G0 Z2.2
G1 F3000
G1 X75.397 Y28.876
; Path 378
G0 Z0
G0 X76.104 Y28.321
G0 Z2.2
G1 F3000
G1 X75.578 Y27.799
G1 X75.061 Y27.291
G1 X74.543 Y26.784
G1 X74.034 Y26.252
G1 X73.507 Y25.744
; Path 379
G0 Z0
G0 X73.514 Y25.721
G0 Z2.2
G1 F3000
G1 X72.990 Y26.241
G1 X72.472 Y26.755
G1 X71.953 Y27.276
G1 X71.434 Y27.809
G1 X70.910 Y28.315
; Path 380
G0 Z0
G0 X71.649 Y28.864
G0 Z2.2
G1 F3000
G1 X71.049 Y29.501
; Path 381
G0 Z0
G0 X70.592 Y31.636
G0 Z2.2
G1 F3000
G1 X71.199 Y31.087
; Path 382
G0 Z0
G0 X70.482 Y30.497
G0 Z2.2
G1 F3000
G1 X71.096 Y29.977
G1 X71.702 Y29.456
G1 X72.299 Y28.928
G1 X72.903 Y28.426
G1 X73.519 Y27.901
; Path 383
G0 Z0
G0 X73.512 Y27.908
G0 Z2.2
G1 F3000
G1 X74.119 Y28.428
G1 X74.712 Y28.934
G1 X75.322 Y29.452
G1 X75.921 Y29.981
G1 X76.532 Y30.495
; Path 384
G0 Z0
G0 X75.828 Y31.061
G0 Z2.2
G1 F3000
G1 X76.482 Y31.599
; Path 385
G0 Z0
G0 X76.961 Y32.656
G0 Z2.2
G1 F3000
G1 X76.263 Y32.148
G1 X75.574 Y31.608
G1 X74.898 Y31.095
G1 X74.212 Y30.578
G1 X73.519 Y30.059
; Path 386
G0 Z0
G0 X73.505 Y30.066
G0 Z2.2
G1 F3000
G1 X72.827 Y30.597
G1 X72.131 Y31.107
G1 X71.430 Y31.629
G1 X70.741 Y32.148
G1 X70.056 Y32.662
; Path 387
G0 Z0
G0 X69.404 Y33.858
G0 Z2.2
G1 F3000
G1 X68.904 Y33.154
; Path 388
G0 Z0
G0 X69.187 Y32.227
G0 Z2.2
G1 F3000
G1 X68.653 Y31.688
G1 X68.106 Y31.132
G1 X67.562 Y30.601
G1 X67.026 Y30.048
; Path 389
G0 Z0
G0 X67.036 Y30.054
G0 Z2.2
G1 F3000
G1 X66.491 Y30.606
G1 X65.944 Y31.153
G1 X65.411 Y31.676
G1 X64.858 Y32.229
; Path 390
G0 Z0
G0 X66.020 Y32.326
G0 Z2.2
G1 F3000
G1 X65.466 Y33.014
; Path 391
G0 Z0
G0 X65.153 Y33.250
G0 Z2.2
G1 F3000
G1 X64.516 Y33.857
; Path 392
G0 Z0
G0 X64.429 Y34.382
G0 Z2.2
G1 F3000
G1 X65.069 Y33.842
G1 X65.726 Y33.292
G1 X66.373 Y32.743
G1 X67.016 Y32.212
; Path 393
G0 Z0
G0 X67.032 Y32.231
G0 Z2.2
G1 F3000
G1 X67.681 Y32.777
G1 X68.336 Y33.311
G1 X68.961 Y33.850
G1 X69.615 Y34.382
; Path 394
G0 Z0
G0 X69.633 Y34.371
G0 Z2.2
G1 F3000
G1 X70.267 Y34.008
G1 X70.919 Y33.645
G1 X71.580 Y33.299
G1 X72.223 Y32.930
G1 X72.878 Y32.563
G1 X73.518 Y32.217
; Path 395
G0 Z0
G0 X73.502 Y32.212
G0 Z2.2
G1 F3000
G1 X74.155 Y32.570
G1 X74.789 Y32.946
G1 X75.449 Y33.303
G1 X76.089 Y33.658
G1 X76.748 Y34.033
G1 X77.396 Y34.384
; Path 396
G0 Z0
G0 X77.831 Y35.681
G0 Z2.2
G1 F3000
G1 X77.101 Y35.455
G1 X76.385 Y35.260
G1 X75.667 Y35.043
G1 X74.965 Y34.811
G1 X74.221 Y34.606
G1 X73.513 Y34.386
; Path 397
G0 Z0
G0 X73.504 Y34.371
G0 Z2.2
G1 F3000
G1 X72.783 Y34.582
G1 X72.071 Y34.809
G1 X71.342 Y35.038
G1 X70.640 Y35.240
G1 X69.910 Y35.467
G1 X69.191 Y35.689
; Path 398
G0 Z0
G0 X68.625 Y35.940
G0 Z2.2
G1 F3000
G1 X67.980 Y35.363
; Path 399
G0 Z0
G0 X67.037 Y36.547
G0 Z2.2
G1 F3000
G1 X66.345 Y36.811
G1 X65.664 Y37.061
G1 X64.967 Y37.314
G1 X64.257 Y37.586
G1 X63.576 Y37.834
; Path 400
G0 Z0
G0 X62.320 Y38.034
G0 Z2.2
G1 F3000
G1 X63.072 Y37.607
; Path 401
G0 Z0
G0 X63.989 Y36.537
G0 Z2.2
G1 F3000
G1 X64.604 Y36.117
G1 X65.207 Y35.680
G1 X65.815 Y35.239
G1 X66.421 Y34.809
G1 X67.023 Y34.391
; Path 402
G0 Z0
G0 X67.022 Y34.383
G0 Z2.2
G1 F3000
G1 X67.630 Y34.811
G1 X68.228 Y35.251
G1 X68.852 Y35.678
G1 X69.446 Y36.121
G1 X70.059 Y36.548
; Path 403
G0 Z0
G0 X70.480 Y37.852
G0 Z2.2
G1 F3000
G1 X69.789 Y37.592
G1 X69.105 Y37.328
G1 X68.405 Y37.061
G1 X67.725 Y36.800
G1 X67.038 Y36.549
; Path 404
G0 Z0
G0 X67.019 Y37.840
G0 Z2.2
G1 F3000
G1 X67.026 Y37.022
G1 X67.008 Y36.206
G1 X67.014 Y35.417
G1 X67.023 Y34.594
G1 X67.027 Y33.785
G1 X67.028 Y32.980
G1 X67.020 Y32.158
G1 X67.026 Y31.340
G1 X67.037 Y30.532
G1 X67.027 Y29.734
G1 X67.034 Y28.928
G1 X67.025 Y28.116
G1 X67.037 Y27.292
G1 X67.033 Y26.488
G1 X67.033 Y25.687
G1 X67.035 Y24.863
; Path 405
G0 Z0
G0 X69.256 Y22.276
G0 Z2.2
G1 F3000
G1 X69.171 Y23.096
; Path 406
G0 Z0
G0 X65.741 Y27.884
G0 Z2.2
G1 F3000
G1 X66.181 Y27.311
G1 X66.590 Y26.724
G1 X67.020 Y26.160
; Path 407
G0 Z0
G0 X67.032 Y26.171
G0 Z2.2
G1 F3000
G1 X67.454 Y26.749
G1 X67.877 Y27.323
G1 X68.318 Y27.901
; Path 408
G0 Z0
G0 X68.767 Y30.047
G0 Z2.2
G1 F3000
G1 X68.332 Y29.508
G1 X67.910 Y28.980
G1 X67.456 Y28.432
G1 X67.029 Y27.898
; Path 409
G0 Z0
G0 X67.019 Y27.892
G0 Z2.2
G1 F3000
G1 X66.583 Y28.448
G1 X66.156 Y28.992
G1 X65.711 Y29.521
G1 X65.285 Y30.070
; Path 410
G0 Z0
G0 X59.854 Y29.578
G0 Z2.2
G1 F3000
G1 X59.416 Y28.852
; Path 411
G0 Z0
G0 X56.614 Y24.013
G0 Z2.2
G1 F3000
G1 X55.750 Y23.996
G0 Z0
M5
G4 P0.3
G0 X0 Y0
; End