; Generated by Sketch DSL for Machine
; Work area: 420mm x 297mm (A3)
G21
G90
M5
G4 P0.5
G0 F11000
; 62 paths
; Path 1
G0 X4.760 Y4.922
G0 Z2.2
G1 F3000
G1 X4.578 Y6.575
G1 X4.413 Y8.187
G1 X4.195 Y9.812
G1 X4.021 Y11.452
G1 X3.813 Y13.072
G1 X3.603 Y14.716
G1 X3.437 Y16.377
G1 X3.178 Y17.981
G1 X2.932 Y19.568
G1 X2.767 Y21.245
G1 X2.539 Y22.860
G1 X2.387 Y24.510
G1 X2.230 Y26.121
G1 X2.059 Y27.775
G1 X1.953 Y29.428
G1 X1.802 Y31.040
G1 X1.731 Y32.697
G1 X1.634 Y34.306
G1 X1.627 Y35.956
G1 X1.575 Y37.573
G1 X1.617 Y39.225
G1 X1.638 Y40.841
G1 X1.736 Y42.486
G1 X1.810 Y44.109
G1 X1.922 Y45.785
G1 X2.072 Y47.378
G1 X2.247 Y49.011
G1 X2.404 Y50.647
G1 X2.591 Y52.270
G1 X2.788 Y53.917
G1 X2.962 Y55.597
G1 X3.203 Y57.186
G1 X3.431 Y58.822
G1 X3.632 Y60.456
G1 X3.849 Y62.047
G1 X4.054 Y63.726
G1 X4.246 Y65.343
G1 X4.450 Y66.996
G1 X4.583 Y68.584
G1 X4.801 Y70.265
; Path 2
G0 Z0
G0 X4.768 Y70.189
G0 Z2.2
G1 F3000
G1 X6.178 Y70.329
G1 X7.634 Y70.376
G1 X9.030 Y70.444
G1 X10.500 Y70.586
G1 X11.964 Y70.656
G1 X13.366 Y70.809
G1 X14.799 Y70.912
G1 X16.233 Y71.036
G1 X17.618 Y71.139
G1 X19.100 Y71.256
G1 X20.513 Y71.398
G1 X21.966 Y71.459
G1 X23.424 Y71.516
G1 X24.831 Y71.635
G1 X26.266 Y71.730
G1 X27.694 Y71.775
G1 X29.104 Y71.836
G1 X30.555 Y71.868
G1 X31.967 Y71.851
G1 X33.415 Y71.903
G1 X34.885 Y71.893
G1 X36.271 Y71.875
G1 X37.719 Y71.822
G1 X39.126 Y71.790
G1 X40.578 Y71.766
G1 X41.978 Y71.658
G1 X43.371 Y71.548
G1 X44.829 Y71.489
G1 X46.251 Y71.381
G1 X47.679 Y71.293
G1 X49.072 Y71.213
G1 X50.528 Y71.081
G1 X51.946 Y70.978
G1 X53.377 Y70.861
G1 X54.794 Y70.724
G1 X56.227 Y70.645
G1 X57.607 Y70.583
G1 X59.076 Y70.443
G1 X60.488 Y70.318
G1 X61.927 Y70.264
; Path 3
G0 Z0
G0 X61.947 Y70.230
G0 Z2.2
G1 F3000
G1 X62.165 Y68.573
G1 X62.307 Y66.959
G1 X62.499 Y65.275
G1 X62.714 Y63.688
G1 X62.894 Y62.036
G1 X63.147 Y60.415
G1 X63.361 Y58.753
G1 X63.587 Y57.143
G1 X63.753 Y55.470
G1 X64.014 Y53.871
G1 X64.222 Y52.186
G1 X64.407 Y50.599
G1 X64.572 Y48.927
G1 X64.747 Y47.328
G1 X64.852 Y45.736
G1 X65.015 Y44.059
G1 X65.079 Y42.404
G1 X65.189 Y40.791
G1 X65.233 Y39.174
G1 X65.251 Y37.525
G1 X65.216 Y35.898
G1 X65.186 Y34.262
G1 X65.132 Y32.628
G1 X65.009 Y31.000
G1 X64.865 Y29.328
G1 X64.739 Y27.740
G1 X64.596 Y26.126
G1 X64.396 Y24.482
G1 X64.190 Y22.847
G1 X64.000 Y21.224
G1 X63.794 Y19.561
G1 X63.570 Y17.967
G1 X63.391 Y16.355
G1 X63.128 Y14.710
G1 X62.917 Y13.045
G1 X62.692 Y11.453
G1 X62.516 Y9.803
G1 X62.282 Y8.195
G1 X62.063 Y6.605
G1 X61.919 Y4.937
; Path 4
G0 Z0
G0 X61.939 Y4.896
G0 Z2.2
G1 F3000
G1 X60.551 Y4.670
G1 X59.085 Y4.362
G1 X57.610 Y4.036
G1 X56.231 Y3.760
G1 X54.769 Y3.395
G1 X53.378 Y3.119
G1 X51.980 Y2.767
G1 X50.525 Y2.467
G1 X49.105 Y2.123
G1 X47.671 Y1.836
G1 X46.211 Y1.542
G1 X44.818 Y1.253
G1 X43.409 Y1.049
G1 X41.964 Y0.749
G1 X40.497 Y0.513
G1 X39.110 Y0.352
G1 X37.664 Y0.188
G1 X36.255 Y0.093
G1 X34.855 Y0.026
G1 X33.400 Y-0.000
G1 X32.017 Y0.088
G1 X30.545 Y0.093
G1 X29.124 Y0.226
G1 X27.689 Y0.353
G1 X26.271 Y0.524
G1 X24.832 Y0.751
G1 X23.386 Y0.970
G1 X21.975 Y1.256
G1 X20.503 Y1.550
G1 X19.118 Y1.839
G1 X17.697 Y2.191
G1 X16.261 Y2.472
G1 X14.801 Y2.831
G1 X13.404 Y3.124
G1 X11.948 Y3.492
G1 X10.547 Y3.766
G1 X9.093 Y4.101
G1 X7.690 Y4.369
G1 X6.270 Y4.634
G1 X4.833 Y4.903
; Path 5
G0 Z0
G0 X13.787 Y13.084
G0 Z2.2
G1 F3000
G1 X14.813 Y12.789
G1 X15.746 Y12.550
G1 X16.716 Y12.223
G1 X17.704 Y11.946
G1 X18.674 Y11.576
G1 X19.663 Y11.304
G1 X20.624 Y10.992
G1 X21.621 Y10.651
G1 X22.556 Y10.287
G1 X23.580 Y10.018
G1 X24.549 Y9.753
G1 X25.539 Y9.435
G1 X26.516 Y9.156
G1 X27.498 Y8.930
G1 X28.490 Y8.748
G1 X29.457 Y8.533
G1 X30.404 Y8.396
G1 X31.416 Y8.274
G1 X32.425 Y8.209
G1 X33.376 Y8.182
G1 X34.379 Y8.204
G1 X35.336 Y8.277
G1 X36.271 Y8.363
G1 X37.297 Y8.540
G1 X38.247 Y8.779
G1 X39.258 Y8.940
G1 X40.240 Y9.189
G1 X41.219 Y9.448
G1 X42.214 Y9.741
G1 X43.180 Y10.035
G1 X44.172 Y10.376
G1 X45.141 Y10.671
G1 X46.102 Y10.982
G1 X47.103 Y11.326
G1 X48.082 Y11.605
G1 X49.064 Y11.972
G1 X50.080 Y12.243
G1 X51.025 Y12.579
G1 X52.002 Y12.862
G1 X52.986 Y13.116
; Path 6
G0 Z0
G0 X47.901 Y11.788
G0 Z2.2
G1 F3000
G1 X44.904 Y11.041
; Path 7
G0 Z0
G0 X41.639 Y10.189
G0 Z2.2
G1 F3000
G1 X38.490 Y9.448
; Path 8
G0 Z0
G0 X35.050 Y9.944
G0 Z2.2
G1 F3000
G1 X31.726 Y9.905
; Path 9
G0 Z0
G0 X28.612 Y9.377
G0 Z2.2
G1 F3000
G1 X25.216 Y10.047
; Path 10
G0 Z0
G0 X21.896 Y10.990
G0 Z2.2
G1 F3000
G1 X18.847 Y11.961
; Path 11
G0 Z0
G0 X17.070 Y18.006
G0 Z2.2
G1 F3000
G1 X17.888 Y17.834
G1 X18.703 Y17.644
G1 X19.517 Y17.487
G1 X20.337 Y17.236
G1 X21.191 Y17.027
G1 X21.971 Y16.801
G1 X22.820 Y16.551
G1 X23.605 Y16.360
G1 X24.422 Y16.173
G1 X25.238 Y15.932
G1 X26.099 Y15.730
G1 X26.872 Y15.537
G1 X27.713 Y15.348
G1 X28.505 Y15.195
G1 X29.277 Y15.096
G1 X30.138 Y14.926
G1 X30.995 Y14.854
G1 X31.770 Y14.750
G1 X32.561 Y14.758
G1 X33.401 Y14.687
G1 X34.212 Y14.681
G1 X35.032 Y14.749
G1 X35.811 Y14.802
G1 X36.662 Y14.925
G1 X37.482 Y15.048
G1 X38.291 Y15.193
G1 X39.094 Y15.366
G1 X39.920 Y15.535
G1 X40.718 Y15.767
G1 X41.548 Y15.929
G1 X42.322 Y16.117
G1 X43.176 Y16.357
G1 X44.011 Y16.534
G1 X44.805 Y16.798
G1 X45.638 Y16.975
G1 X46.433 Y17.232
G1 X47.262 Y17.441
G1 X48.061 Y17.640
G1 X48.905 Y17.855
G1 X49.690 Y18.002
; Path 12
G0 Z0
G0 X57.861 Y21.254
G0 Z2.2
G1 F3000
G1 X56.216 Y23.966
G1 X54.550 Y26.671
G1 X52.964 Y29.370
; Path 13
G0 Z0
G0 X56.272 Y24.509
G0 Z2.2
G1 F3000
G1 X56.230 Y27.211
G1 X56.240 Y29.935
G1 X56.196 Y32.675
; Path 14
G0 Z0
G0 X56.274 Y32.676
G0 Z2.2
G1 F3000
G1 X55.793 Y32.767
G1 X55.287 Y32.854
G1 X54.814 Y32.983
G1 X54.299 Y33.055
G1 X53.832 Y33.156
G1 X53.311 Y33.269
G1 X52.857 Y33.373
G1 X52.323 Y33.487
G1 X51.820 Y33.561
G1 X51.335 Y33.698
G1 X50.822 Y33.787
G1 X50.348 Y33.893
G1 X49.878 Y33.957
G1 X49.361 Y34.061
G1 X48.869 Y34.089
G1 X48.375 Y34.193
G1 X47.868 Y34.194
G1 X47.391 Y34.278
G1 X46.891 Y34.267
G1 X46.408 Y34.307
G1 X45.930 Y34.248
G1 X45.426 Y34.273
G1 X44.970 Y34.249
G1 X44.446 Y34.183
G1 X43.983 Y34.087
G1 X43.468 Y34.047
G1 X42.985 Y33.968
G1 X42.490 Y33.874
G1 X42.019 Y33.749
G1 X41.513 Y33.675
G1 X41.047 Y33.566
G1 X40.537 Y33.459
G1 X40.014 Y33.361
G1 X39.561 Y33.237
G1 X39.042 Y33.091
G1 X38.585 Y33.018
G1 X38.131 Y32.912
G1 X37.608 Y32.812
G1 X37.093 Y32.676
G1 X36.631 Y32.630
; Path 15
G0 Z0
G0 X36.614 Y32.716
G0 Z2.2
G1 F3000
G1 X36.649 Y29.952
G1 X36.617 Y27.242
G1 X36.602 Y24.518
; Path 16
G0 Z0
G0 X36.669 Y24.511
G0 Z2.2
G1 F3000
G1 X37.191 Y24.412
G1 X37.648 Y24.330
G1 X38.159 Y24.212
G1 X38.627 Y24.126
G1 X39.069 Y24.057
G1 X39.605 Y23.909
G1 X40.090 Y23.756
G1 X40.584 Y23.688
G1 X41.066 Y23.610
G1 X41.563 Y23.474
G1 X42.015 Y23.397
G1 X42.541 Y23.277
G1 X43.064 Y23.142
G1 X43.521 Y23.106
G1 X44.027 Y23.077
G1 X44.500 Y22.971
G1 X45.022 Y22.925
G1 X45.480 Y22.882
G1 X45.936 Y22.838
G1 X46.460 Y22.850
G1 X46.944 Y22.829
G1 X47.441 Y22.880
G1 X47.935 Y22.914
G1 X48.423 Y22.966
G1 X48.888 Y23.045
G1 X49.405 Y23.099
G1 X49.942 Y23.200
G1 X50.387 Y23.268
G1 X50.880 Y23.346
G1 X51.369 Y23.463
G1 X51.836 Y23.564
G1 X52.352 Y23.675
G1 X52.874 Y23.789
G1 X53.335 Y23.893
G1 X53.847 Y24.034
G1 X54.317 Y24.108
G1 X54.778 Y24.209
G1 X55.300 Y24.310
G1 X55.823 Y24.431
G1 X56.282 Y24.488
; Path 17
G0 Z0
G0 X45.627 Y27.768
G0 Z2.2
G1 F3000
G1 X44.811 Y26.952
G1 X43.994 Y27.768
G1 X44.811 Y28.585
G1 X45.627 Y27.768
; Path 18
G0 Z0
G0 X39.945 Y27.797
G0 Z2.2
G1 F3000
G1 X40.290 Y27.967
G1 X40.594 Y28.152
G1 X40.918 Y28.371
G1 X41.241 Y28.552
G1 X41.577 Y28.731
G1 X41.889 Y28.979
G1 X42.193 Y29.226
G1 X42.536 Y29.412
G1 X42.854 Y29.633
G1 X43.184 Y29.833
G1 X43.539 Y30.044
G1 X43.832 Y30.220
G1 X44.175 Y30.357
G1 X44.480 Y30.555
G1 X44.759 Y30.706
G1 X45.130 Y30.818
G1 X45.423 Y30.894
G1 X45.781 Y30.989
G1 X46.127 Y30.972
G1 X46.433 Y31.048
G1 X46.742 Y31.025
G1 X47.087 Y30.983
G1 X47.457 Y30.859
G1 X47.743 Y30.806
G1 X48.068 Y30.671
G1 X48.399 Y30.538
G1 X48.734 Y30.386
G1 X49.057 Y30.197
G1 X49.341 Y29.995
G1 X49.715 Y29.804
G1 X50.083 Y29.619
G1 X50.374 Y29.378
G1 X50.676 Y29.153
G1 X51.033 Y28.939
G1 X51.337 Y28.697
G1 X51.692 Y28.507
G1 X52.014 Y28.285
G1 X52.351 Y28.100
G1 X52.648 Y27.961
G1 X53.009 Y27.740
; Path 19
G0 Z0
G0 X52.989 Y27.790
G0 Z2.2
G1 F3000
G1 X52.638 Y27.705
G1 X52.339 Y27.615
G1 X51.999 Y27.535
G1 X51.688 Y27.417
G1 X51.332 Y27.269
G1 X51.039 Y27.207
G1 X50.670 Y27.080
G1 X50.389 Y26.994
G1 X50.021 Y26.907
G1 X49.739 Y26.787
G1 X49.380 Y26.714
G1 X49.089 Y26.596
G1 X48.806 Y26.544
G1 X48.438 Y26.431
G1 X48.126 Y26.349
G1 X47.786 Y26.300
G1 X47.498 Y26.241
G1 X47.132 Y26.214
G1 X46.851 Y26.177
G1 X46.478 Y26.181
G1 X46.101 Y26.148
G1 X45.821 Y26.209
G1 X45.506 Y26.233
G1 X45.163 Y26.291
G1 X44.790 Y26.385
G1 X44.504 Y26.417
G1 X44.161 Y26.518
G1 X43.844 Y26.579
G1 X43.553 Y26.633
G1 X43.183 Y26.765
G1 X42.835 Y26.826
G1 X42.521 Y26.968
G1 X42.208 Y27.026
G1 X41.860 Y27.177
G1 X41.543 Y27.271
G1 X41.198 Y27.382
G1 X40.831 Y27.523
G1 X40.537 Y27.575
G1 X40.169 Y27.686
G1 X39.877 Y27.746
; Path 20
G0 Z0
G0 X26.829 Y27.733
G0 Z2.2
G1 F3000
G1 X26.545 Y27.660
G1 X26.178 Y27.562
G1 X25.863 Y27.426
G1 X25.528 Y27.369
G1 X25.231 Y27.261
G1 X24.877 Y27.164
G1 X24.565 Y27.103
G1 X24.226 Y26.956
G1 X23.886 Y26.817
G1 X23.576 Y26.754
G1 X23.248 Y26.703
G1 X22.925 Y26.568
G1 X22.631 Y26.447
G1 X22.274 Y26.406
G1 X21.922 Y26.353
G1 X21.623 Y26.279
G1 X21.272 Y26.277
G1 X20.972 Y26.196
G1 X20.613 Y26.161
G1 X20.320 Y26.167
G1 X19.989 Y26.163
G1 X19.668 Y26.197
G1 X19.300 Y26.240
G1 X19.016 Y26.280
G1 X18.644 Y26.322
G1 X18.363 Y26.406
G1 X18.044 Y26.517
G1 X17.711 Y26.568
G1 X17.376 Y26.674
G1 X17.058 Y26.754
G1 X16.750 Y26.843
G1 X16.405 Y26.956
G1 X16.098 Y27.064
G1 X15.752 Y27.164
G1 X15.419 Y27.314
G1 X15.098 Y27.369
G1 X14.805 Y27.430
G1 X14.445 Y27.562
G1 X14.078 Y27.666
G1 X13.793 Y27.733
; Path 21
G0 Z0
G0 X13.833 Y27.793
G0 Z2.2
G1 F3000
G1 X14.200 Y27.951
G1 X14.483 Y28.148
G1 X14.767 Y28.376
G1 X15.132 Y28.549
G1 X15.495 Y28.752
G1 X15.782 Y28.977
G1 X16.137 Y29.184
G1 X16.432 Y29.410
G1 X16.760 Y29.584
G1 X17.082 Y29.831
G1 X17.409 Y29.982
G1 X17.732 Y30.219
G1 X18.057 Y30.365
G1 X18.382 Y30.555
G1 X18.740 Y30.649
G1 X19.031 Y30.818
G1 X19.354 Y30.943
G1 X19.680 Y30.990
G1 X20.005 Y31.024
G1 X20.329 Y31.051
G1 X20.605 Y30.989
G1 X20.977 Y30.987
G1 X21.332 Y30.925
G1 X21.625 Y30.813
G1 X21.967 Y30.726
G1 X22.273 Y30.546
G1 X22.596 Y30.405
G1 X22.920 Y30.208
G1 X23.257 Y30.057
G1 X23.567 Y29.817
G1 X23.857 Y29.647
G1 X24.214 Y29.393
G1 X24.534 Y29.217
G1 X24.862 Y28.957
G1 X25.220 Y28.699
G1 X25.509 Y28.526
G1 X25.844 Y28.325
G1 X26.156 Y28.123
G1 X26.436 Y27.981
G1 X26.803 Y27.764
; Path 22
G0 Z0
G0 X22.767 Y27.768
G0 Z2.2
G1 F3000
G1 X21.951 Y26.952
G1 X21.135 Y27.768
G1 X21.951 Y28.585
G1 X22.767 Y27.768
; Path 23
G0 Z0
G0 X8.912 Y21.251
G0 Z2.2
G1 F3000
G1 X10.500 Y23.965
G1 X12.192 Y26.646
G1 X13.786 Y29.372
; Path 24
G0 Z0
G0 X10.538 Y32.628
G0 Z2.2
G1 F3000
G1 X11.058 Y32.692
G1 X11.511 Y32.813
G1 X11.982 Y32.943
G1 X12.483 Y33.021
G1 X12.952 Y33.097
G1 X13.455 Y33.242
G1 X13.944 Y33.391
G1 X14.427 Y33.466
G1 X14.924 Y33.588
G1 X15.399 Y33.684
G1 X15.891 Y33.759
G1 X16.371 Y33.885
G1 X16.829 Y33.954
G1 X17.345 Y34.060
G1 X17.879 Y34.156
G1 X18.319 Y34.198
G1 X18.853 Y34.251
G1 X19.295 Y34.290
G1 X19.747 Y34.278
G1 X20.273 Y34.325
G1 X20.737 Y34.300
G1 X21.252 Y34.298
G1 X21.733 Y34.234
G1 X22.234 Y34.214
G1 X22.764 Y34.162
G1 X23.216 Y34.083
G1 X23.732 Y33.973
G1 X24.200 Y33.916
G1 X24.672 Y33.836
G1 X25.185 Y33.723
G1 X25.643 Y33.588
G1 X26.170 Y33.513
G1 X26.703 Y33.441
G1 X27.156 Y33.296
G1 X27.666 Y33.211
G1 X28.141 Y33.083
G1 X28.615 Y32.969
G1 X29.126 Y32.883
G1 X29.571 Y32.811
G1 X30.111 Y32.706
; Path 25
G0 Z0
G0 X30.104 Y32.672
G0 Z2.2
G1 F3000
G1 X30.143 Y29.997
G1 X30.055 Y27.194
G1 X30.100 Y24.512
; Path 26
G0 Z0
G0 X30.144 Y24.467
G0 Z2.2
G1 F3000
G1 X29.656 Y24.338
G1 X29.158 Y24.289
G1 X28.653 Y24.194
G1 X28.170 Y24.087
G1 X27.725 Y23.984
G1 X27.182 Y23.872
G1 X26.658 Y23.725
G1 X26.194 Y23.654
G1 X25.655 Y23.526
G1 X25.207 Y23.442
G1 X24.748 Y23.304
G1 X24.219 Y23.247
G1 X23.716 Y23.203
G1 X23.233 Y23.078
G1 X22.783 Y23.000
G1 X22.248 Y22.946
G1 X21.746 Y22.910
G1 X21.264 Y22.861
G1 X20.737 Y22.824
G1 X20.282 Y22.832
G1 X19.787 Y22.880
G1 X19.301 Y22.866
G1 X18.806 Y22.893
G1 X18.323 Y22.956
G1 X17.798 Y22.977
G1 X17.346 Y23.093
G1 X16.864 Y23.215
G1 X16.370 Y23.267
G1 X15.905 Y23.406
G1 X15.395 Y23.467
G1 X14.886 Y23.544
G1 X14.420 Y23.684
G1 X13.892 Y23.757
G1 X13.446 Y23.907
G1 X12.940 Y24.057
G1 X12.472 Y24.127
G1 X12.021 Y24.232
G1 X11.497 Y24.334
G1 X11.053 Y24.447
G1 X10.521 Y24.518
; Path 27
G0 Z0
G0 X10.565 Y24.532
G0 Z2.2
G1 F3000
G1 X10.546 Y27.261
G1 X10.487 Y29.985
G1 X10.499 Y32.643
; Path 28
G0 Z0
G0 X8.910 Y34.344
G0 Z2.2
G1 F3000
G1 X9.512 Y34.520
G1 X10.051 Y34.700
G1 X10.599 Y34.912
G1 X11.192 Y35.103
G1 X11.723 Y35.348
G1 X12.333 Y35.531
G1 X12.948 Y35.790
G1 X13.474 Y35.967
G1 X14.007 Y36.162
G1 X14.615 Y36.389
G1 X15.156 Y36.613
G1 X15.756 Y36.778
G1 X16.302 Y36.923
G1 X16.897 Y37.115
G1 X17.492 Y37.273
G1 X18.038 Y37.379
G1 X18.596 Y37.507
G1 X19.180 Y37.552
G1 X19.737 Y37.587
G1 X20.322 Y37.612
G1 X20.938 Y37.595
G1 X21.465 Y37.547
G1 X22.009 Y37.498
G1 X22.609 Y37.371
G1 X23.137 Y37.194
G1 X23.752 Y37.102
G1 X24.305 Y36.976
G1 X24.896 Y36.761
G1 X25.458 Y36.595
G1 X26.040 Y36.367
G1 X26.581 Y36.111
G1 X27.185 Y35.941
G1 X27.719 Y35.722
G1 X28.329 Y35.501
G1 X28.904 Y35.331
G1 X29.473 Y35.068
G1 X30.070 Y34.820
G1 X30.618 Y34.661
G1 X31.190 Y34.502
G1 X31.762 Y34.300
; Path 29
G0 Z0
G0 X33.421 Y34.348
G0 Z2.2
G1 F3000
G1 X33.372 Y37.578
G1 X33.403 Y40.824
G1 X33.409 Y44.093
G1 X33.333 Y47.370
G1 X33.363 Y50.603
; Path 30
G0 Z0
G0 X33.363 Y50.606
G0 Z2.2
G1 F3000
G1 X33.184 Y50.653
G1 X33.043 Y50.767
G1 X32.866 Y50.890
G1 X32.722 Y50.928
G1 X32.586 Y51.056
G1 X32.402 Y51.089
G1 X32.247 Y51.170
G1 X32.083 Y51.249
G1 X31.925 Y51.331
G1 X31.763 Y51.410
G1 X31.611 Y51.486
G1 X31.442 Y51.571
G1 X31.330 Y51.696
G1 X31.121 Y51.732
G1 X30.974 Y51.810
G1 X30.799 Y51.893
G1 X30.588 Y52.015
G1 X30.475 Y52.055
G1 X30.273 Y52.104
G1 X30.149 Y52.218
G1 X29.958 Y52.337
G1 X29.822 Y52.382
G1 X29.706 Y52.445
G1 X29.493 Y52.546
G1 X29.344 Y52.631
G1 X29.163 Y52.710
G1 X29.014 Y52.831
G1 X28.831 Y52.876
G1 X28.688 Y52.946
G1 X28.499 Y53.041
G1 X28.290 Y53.161
G1 X28.166 Y53.206
G1 X27.981 Y53.247
G1 X27.833 Y53.372
G1 X27.711 Y53.485
G1 X27.500 Y53.538
G1 X27.332 Y53.573
G1 X27.167 Y53.703
G1 X27.036 Y53.764
G1 X26.836 Y53.868
; Path 31
G0 Z0
G0 X18.789 Y46.805
G0 Z2.2
G1 F3000
G1 X21.667 Y48.268
; Path 32
G0 Z0
G0 X18.845 Y44.537
G0 Z2.2
G1 F3000
G1 X15.529 Y43.644
; Path 33
G0 Z0
G0 X15.312 Y41.165
G0 Z2.2
G1 F3000
G1 X12.241 Y40.335
; Path 34
G0 Z0
G0 X12.090 Y35.479
G0 Z2.2
G1 F3000
G1 X15.268 Y36.372
; Path 35
G0 Z0
G0 X15.563 Y37.103
G0 Z2.2
G1 F3000
G1 X18.541 Y37.987
; Path 36
G0 Z0
G0 X18.768 Y37.592
G0 Z2.2
G1 F3000
G1 X22.092 Y37.221
; Path 37
G0 Z0
G0 X21.956 Y37.837
G0 Z2.2
G1 F3000
G1 X25.095 Y37.343
; Path 38
G0 Z0
G0 X25.158 Y36.292
G0 Z2.2
G1 F3000
G1 X28.371 Y35.344
; Path 39
G0 Z0
G0 X30.106 Y39.211
G0 Z2.2
G1 F3000
G1 X29.598 Y39.420
G1 X29.131 Y39.567
G1 X28.662 Y39.763
G1 X28.157 Y39.969
G1 X27.659 Y40.150
G1 X27.182 Y40.397
G1 X26.702 Y40.650
G1 X26.208 Y40.832
G1 X25.687 Y40.999
G1 X25.234 Y41.253
G1 X24.733 Y41.419
G1 X24.259 Y41.642
G1 X23.734 Y41.829
G1 X23.284 Y41.978
G1 X22.775 Y42.135
G1 X22.308 Y42.242
G1 X21.798 Y42.317
G1 X21.331 Y42.414
G1 X20.888 Y42.485
G1 X20.352 Y42.474
G1 X19.908 Y42.485
G1 X19.372 Y42.409
G1 X18.883 Y42.328
G1 X18.391 Y42.233
G1 X17.854 Y42.143
G1 X17.409 Y41.965
G1 X16.929 Y41.775
G1 X16.426 Y41.624
G1 X15.939 Y41.396
G1 X15.442 Y41.231
G1 X14.942 Y40.997
G1 X14.458 Y40.805
G1 X14.014 Y40.624
G1 X13.474 Y40.366
G1 X13.016 Y40.180
G1 X12.490 Y39.933
G1 X11.984 Y39.757
G1 X11.506 Y39.527
G1 X11.027 Y39.337
G1 X10.522 Y39.166
; Path 40
G0 Z0
G0 X7.237 Y42.467
G0 Z2.2
G1 F3000
G1 X7.263 Y42.616
G1 X7.358 Y42.747
G1 X7.412 Y42.837
G1 X7.411 Y42.958
G1 X7.397 Y43.065
G1 X7.424 Y43.129
G1 X7.382 Y43.179
G1 X7.427 Y43.291
G1 X7.426 Y43.382
G1 X7.450 Y43.472
G1 X7.502 Y43.543
G1 X7.522 Y43.703
G1 X7.614 Y43.838
G1 X7.673 Y44.012
G1 X7.777 Y44.231
G1 X7.931 Y44.430
G1 X8.147 Y44.749
G1 X8.326 Y44.986
G1 X8.582 Y45.345
G1 X8.888 Y45.709
G1 X9.276 Y46.196
G1 X9.637 Y46.620
G1 X10.142 Y47.176
G1 X10.551 Y47.698
G1 X11.047 Y48.330
G1 X11.603 Y48.914
G1 X12.216 Y49.562
G1 X12.763 Y50.238
G1 X13.355 Y50.974
G1 X14.001 Y51.641
G1 X14.642 Y52.398
G1 X15.288 Y53.094
G1 X15.931 Y53.872
G1 X16.594 Y54.566
G1 X17.278 Y55.260
G1 X17.891 Y56.028
G1 X18.518 Y56.704
G1 X19.149 Y57.451
G1 X19.736 Y58.156
G1 X20.338 Y58.805
; Path 41
G0 Z0
G0 X4.794 Y62.079
G0 Z2.2
G1 F3000
G1 X4.551 Y62.471
G1 X4.278 Y62.888
G1 X3.927 Y63.275
G1 X3.596 Y63.686
G1 X3.192 Y64.112
G1 X2.819 Y64.477
G1 X2.412 Y64.886
G1 X2.018 Y65.267
G1 X1.594 Y65.705
G1 X1.265 Y66.060
G1 X0.948 Y66.448
G1 X0.630 Y66.861
G1 X0.367 Y67.276
G1 X0.185 Y67.675
G1 X0.097 Y68.139
G1 X-0.000 Y68.506
G1 X0.107 Y68.938
G1 X0.147 Y69.359
G1 X0.417 Y69.817
G1 X0.696 Y70.240
G1 X1.202 Y70.736
G1 X1.695 Y71.152
G1 X2.434 Y71.576
G1 X3.096 Y72.090
G1 X3.962 Y72.538
G1 X4.829 Y73.051
G1 X5.825 Y73.530
G1 X6.823 Y74.029
G1 X7.928 Y74.522
G1 X9.006 Y75.020
G1 X10.188 Y75.477
G1 X11.307 Y76.019
G1 X12.494 Y76.483
G1 X13.655 Y77.022
G1 X14.867 Y77.566
G1 X15.980 Y78.022
G1 X17.139 Y78.545
G1 X18.211 Y79.017
G1 X19.224 Y79.510
G1 X20.275 Y80.000
; Path 42
G0 Z0
G0 X23.588 Y67.003
G0 Z2.2
G1 F3000
G1 X24.050 Y67.130
G1 X24.566 Y67.351
G1 X25.049 Y67.591
G1 X25.544 Y67.743
G1 X26.048 Y67.974
G1 X26.521 Y68.160
G1 X26.966 Y68.413
G1 X27.499 Y68.584
G1 X28.022 Y68.832
G1 X28.476 Y68.996
G1 X28.932 Y69.196
G1 X29.454 Y69.375
G1 X29.919 Y69.550
G1 X30.432 Y69.703
G1 X30.881 Y69.837
G1 X31.411 Y69.960
G1 X31.879 Y70.031
G1 X32.390 Y70.128
G1 X32.887 Y70.132
G1 X33.371 Y70.186
G1 X33.848 Y70.176
G1 X34.353 Y70.123
G1 X34.867 Y70.027
G1 X35.335 Y69.951
G1 X35.858 Y69.833
G1 X36.319 Y69.689
G1 X36.777 Y69.517
G1 X37.303 Y69.357
G1 X37.748 Y69.181
G1 X38.287 Y68.973
G1 X38.771 Y68.740
G1 X39.272 Y68.558
G1 X39.731 Y68.330
G1 X40.257 Y68.129
G1 X40.779 Y67.875
G1 X41.242 Y67.707
G1 X41.701 Y67.488
G1 X42.226 Y67.311
G1 X42.760 Y67.109
G1 X43.211 Y66.959
; Path 43
G0 Z0
G0 X43.153 Y66.986
G0 Z2.2
G1 F3000
G1 X42.635 Y66.905
G1 X42.180 Y66.808
G1 X41.722 Y66.728
G1 X41.208 Y66.608
G1 X40.754 Y66.528
G1 X40.236 Y66.395
G1 X39.763 Y66.271
G1 X39.264 Y66.178
G1 X38.796 Y66.080
G1 X38.292 Y65.968
G1 X37.819 Y65.832
G1 X37.320 Y65.775
G1 X36.867 Y65.648
G1 X36.347 Y65.606
G1 X35.878 Y65.543
G1 X35.373 Y65.473
G1 X34.902 Y65.433
G1 X34.398 Y65.385
G1 X33.884 Y65.362
G1 X33.421 Y65.351
G1 X32.919 Y65.338
G1 X32.443 Y65.378
G1 X31.971 Y65.427
G1 X31.463 Y65.460
G1 X30.964 Y65.530
G1 X30.483 Y65.586
G1 X30.001 Y65.693
G1 X29.501 Y65.748
G1 X28.979 Y65.807
G1 X28.519 Y65.935
G1 X28.047 Y66.046
G1 X27.537 Y66.138
G1 X27.000 Y66.205
G1 X26.554 Y66.348
G1 X26.016 Y66.409
G1 X25.571 Y66.555
G1 X25.064 Y66.637
G1 X24.589 Y66.748
G1 X24.126 Y66.822
G1 X23.607 Y66.920
; Path 44
G0 Z0
G0 X23.547 Y66.959
G0 Z2.2
G1 F3000
G1 X23.501 Y65.365
G1 X23.536 Y63.724
; Path 45
G0 Z0
G0 X21.954 Y62.009
G0 Z2.2
G1 F3000
G1 X22.119 Y62.168
G1 X22.277 Y62.231
G1 X22.422 Y62.352
G1 X22.600 Y62.544
G1 X22.807 Y62.718
G1 X22.922 Y62.908
G1 X23.040 Y63.066
G1 X23.244 Y63.286
G1 X23.442 Y63.439
G1 X23.566 Y63.638
G1 X23.749 Y63.773
G1 X23.889 Y63.925
G1 X24.011 Y63.985
G1 X24.212 Y64.108
G1 X24.395 Y64.155
G1 X24.535 Y64.147
G1 X24.656 Y64.081
G1 X24.859 Y64.005
G1 X25.040 Y63.804
G1 X25.184 Y63.642
G1 X25.322 Y63.310
G1 X25.509 Y63.031
G1 X25.656 Y62.618
G1 X25.835 Y62.200
G1 X25.988 Y61.730
G1 X26.162 Y61.187
G1 X26.353 Y60.582
G1 X26.489 Y60.031
G1 X26.637 Y59.374
G1 X26.816 Y58.770
G1 X26.956 Y58.146
G1 X27.144 Y57.445
G1 X27.320 Y56.816
G1 X27.472 Y56.094
G1 X27.640 Y55.417
G1 X27.799 Y54.755
G1 X27.961 Y54.098
G1 X28.127 Y53.469
G1 X28.277 Y52.877
G1 X28.454 Y52.274
; Path 46
G0 Z0
G0 X30.116 Y55.561
G0 Z2.2
G1 F3000
G1 X29.981 Y55.483
G1 X29.934 Y55.394
G1 X29.853 Y55.300
G1 X29.728 Y55.227
G1 X29.627 Y55.168
G1 X29.508 Y55.059
G1 X29.431 Y54.971
G1 X29.285 Y54.892
G1 X29.142 Y54.802
G1 X29.069 Y54.725
G1 X28.955 Y54.662
G1 X28.870 Y54.557
G1 X28.783 Y54.510
G1 X28.698 Y54.391
G1 X28.608 Y54.268
G1 X28.562 Y54.225
G1 X28.511 Y54.098
G1 X28.474 Y54.061
G1 X28.492 Y53.997
G1 X28.443 Y53.897
G1 X28.480 Y53.812
G1 X28.476 Y53.735
G1 X28.487 Y53.612
G1 X28.566 Y53.574
G1 X28.675 Y53.456
G1 X28.703 Y53.415
G1 X28.838 Y53.334
G1 X28.877 Y53.256
G1 X29.019 Y53.191
G1 X29.078 Y53.097
G1 X29.215 Y53.010
G1 X29.296 Y52.939
G1 X29.455 Y52.831
G1 X29.521 Y52.781
G1 X29.656 Y52.654
G1 X29.742 Y52.623
G1 X29.807 Y52.512
G1 X29.950 Y52.465
G1 X30.021 Y52.360
G1 X30.134 Y52.306
; Path 47
G0 Z0
G0 X33.362 Y50.612
G0 Z2.2
G1 F3000
G1 X33.498 Y50.678
G1 X33.689 Y50.777
G1 X33.864 Y50.874
G1 X34.015 Y50.941
G1 X34.131 Y51.060
G1 X34.341 Y51.106
G1 X34.496 Y51.209
G1 X34.667 Y51.270
G1 X34.830 Y51.347
G1 X34.993 Y51.434
G1 X35.166 Y51.471
G1 X35.319 Y51.599
G1 X35.493 Y51.724
G1 X35.645 Y51.763
G1 X35.806 Y51.826
G1 X35.972 Y51.928
G1 X36.120 Y51.973
G1 X36.299 Y52.094
G1 X36.476 Y52.210
G1 X36.627 Y52.260
G1 X36.829 Y52.301
G1 X36.956 Y52.426
G1 X37.130 Y52.553
G1 X37.285 Y52.593
G1 X37.434 Y52.682
G1 X37.614 Y52.761
G1 X37.757 Y52.815
G1 X37.944 Y52.929
G1 X38.063 Y52.984
G1 X38.275 Y53.097
G1 X38.468 Y53.178
G1 X38.605 Y53.265
G1 X38.757 Y53.316
G1 X38.936 Y53.433
G1 X39.133 Y53.531
G1 X39.266 Y53.601
G1 X39.451 Y53.726
G1 X39.597 Y53.769
G1 X39.733 Y53.885
G1 X39.927 Y53.937
; Path 48
G0 Z0
G0 X36.655 Y55.529
G0 Z2.2
G1 F3000
G1 X36.761 Y55.483
G1 X36.830 Y55.362
G1 X36.914 Y55.278
G1 X37.027 Y55.195
G1 X37.112 Y55.108
G1 X37.238 Y55.028
G1 X37.386 Y54.907
G1 X37.451 Y54.860
G1 X37.565 Y54.782
G1 X37.658 Y54.693
G1 X37.755 Y54.563
G1 X37.850 Y54.526
G1 X37.960 Y54.468
G1 X38.015 Y54.359
G1 X38.053 Y54.265
G1 X38.146 Y54.193
G1 X38.174 Y54.118
G1 X38.231 Y54.027
G1 X38.251 Y53.910
G1 X38.263 Y53.862
G1 X38.217 Y53.787
G1 X38.234 Y53.697
G1 X38.154 Y53.575
G1 X38.150 Y53.533
G1 X38.098 Y53.485
G1 X38.022 Y53.369
G1 X37.896 Y53.250
G1 X37.859 Y53.205
G1 X37.800 Y53.117
G1 X37.670 Y53.042
G1 X37.521 Y52.956
G1 X37.466 Y52.879
G1 X37.404 Y52.793
G1 X37.254 Y52.716
G1 X37.134 Y52.667
G1 X37.047 Y52.553
G1 X36.912 Y52.510
G1 X36.851 Y52.390
G1 X36.740 Y52.301
G1 X36.679 Y52.227
; Path 49
G0 Z0
G0 X38.286 Y52.222
G0 Z2.2
G1 F3000
G1 X38.421 Y52.845
G1 X38.609 Y53.426
G1 X38.801 Y54.087
G1 X38.931 Y54.722
G1 X39.066 Y55.388
G1 X39.253 Y56.070
G1 X39.377 Y56.731
G1 X39.574 Y57.431
G1 X39.721 Y58.133
G1 X39.896 Y58.766
G1 X40.070 Y59.354
G1 X40.218 Y60.036
G1 X40.414 Y60.651
G1 X40.541 Y61.201
G1 X40.747 Y61.718
G1 X40.865 Y62.222
G1 X41.015 Y62.639
G1 X41.191 Y63.061
G1 X41.375 Y63.400
G1 X41.518 Y63.677
G1 X41.684 Y63.877
G1 X41.848 Y64.044
G1 X42.008 Y64.095
G1 X42.179 Y64.190
G1 X42.330 Y64.129
G1 X42.512 Y64.152
G1 X42.651 Y64.096
G1 X42.846 Y63.971
G1 X42.976 Y63.816
G1 X43.181 Y63.685
G1 X43.376 Y63.472
G1 X43.516 Y63.334
G1 X43.721 Y63.098
G1 X43.851 Y62.957
G1 X44.044 Y62.810
G1 X44.187 Y62.592
G1 X44.387 Y62.425
G1 X44.522 Y62.280
G1 X44.679 Y62.128
G1 X44.856 Y62.060
; Path 50
G0 Z0
G0 X43.189 Y66.933
G0 Z2.2
G1 F3000
G1 X43.170 Y65.254
G1 X43.227 Y63.644
; Path 51
G0 Z0
G0 X46.439 Y58.771
G0 Z2.2
G1 F3000
G1 X47.032 Y58.098
G1 X47.629 Y57.425
G1 X48.223 Y56.758
G1 X48.888 Y56.011
G1 X49.491 Y55.281
G1 X50.187 Y54.557
G1 X50.815 Y53.829
G1 X51.495 Y53.094
G1 X52.115 Y52.392
G1 X52.783 Y51.650
G1 X53.421 Y50.972
G1 X54.023 Y50.256
G1 X54.652 Y49.601
G1 X55.183 Y48.939
G1 X55.692 Y48.292
G1 X56.235 Y47.729
G1 X56.736 Y47.149
G1 X57.148 Y46.657
G1 X57.496 Y46.182
G1 X57.894 Y45.750
G1 X58.173 Y45.385
G1 X58.453 Y45.029
G1 X58.695 Y44.780
G1 X58.844 Y44.474
G1 X58.943 Y44.253
G1 X59.097 Y44.055
G1 X59.207 Y43.857
G1 X59.241 Y43.744
G1 X59.282 Y43.635
G1 X59.307 Y43.511
G1 X59.284 Y43.401
G1 X59.323 Y43.327
G1 X59.337 Y43.286
G1 X59.320 Y43.162
G1 X59.311 Y43.117
G1 X59.326 Y42.988
G1 X59.304 Y42.927
G1 X59.372 Y42.774
G1 X59.400 Y42.619
G1 X59.487 Y42.493
; Path 52
G0 Z0
G0 X57.875 Y34.291
G0 Z2.2
G1 F3000
G1 X57.306 Y34.512
G1 X56.732 Y34.649
G1 X56.124 Y34.844
G1 X55.588 Y35.054
G1 X55.014 Y35.288
G1 X54.444 Y35.485
G1 X53.831 Y35.741
G1 X53.300 Y35.923
G1 X52.743 Y36.118
G1 X52.156 Y36.348
G1 X51.550 Y36.550
G1 X51.013 Y36.739
G1 X50.397 Y36.880
G1 X49.869 Y37.078
G1 X49.250 Y37.196
G1 X48.727 Y37.344
G1 X48.123 Y37.402
G1 X47.584 Y37.518
G1 X47.033 Y37.569
G1 X46.443 Y37.579
G1 X45.875 Y37.529
G1 X45.302 Y37.515
G1 X44.762 Y37.379
G1 X44.162 Y37.339
G1 X43.634 Y37.162
G1 X43.023 Y37.070
G1 X42.470 Y36.888
G1 X41.884 Y36.729
G1 X41.278 Y36.494
G1 X40.746 Y36.334
G1 X40.150 Y36.160
G1 X39.608 Y35.907
G1 X39.018 Y35.723
G1 X38.469 Y35.466
G1 X37.947 Y35.225
G1 X37.331 Y35.032
G1 X36.715 Y34.845
G1 X36.193 Y34.625
G1 X35.596 Y34.449
G1 X35.054 Y34.264
; Path 53
G0 Z0
G0 X38.418 Y35.561
G0 Z2.2
G1 F3000
G1 X41.557 Y36.562
; Path 54
G0 Z0
G0 X41.748 Y37.336
G0 Z2.2
G1 F3000
G1 X44.911 Y37.905
; Path 55
G0 Z0
G0 X44.670 Y37.784
G0 Z2.2
G1 F3000
G1 X47.975 Y37.659
; Path 56
G0 Z0
G0 X48.094 Y37.916
G0 Z2.2
G1 F3000
G1 X51.088 Y37.258
; Path 57
G0 Z0
G0 X51.569 Y36.337
G0 Z2.2
G1 F3000
G1 X54.632 Y35.466
; Path 58
G0 Z0
G0 X51.326 Y41.300
G0 Z2.2
G1 F3000
G1 X54.490 Y40.414
; Path 59
G0 Z0
G0 X56.249 Y39.234
G0 Z2.2
G1 F3000
G1 X55.754 Y39.384
G1 X55.274 Y39.591
G1 X54.753 Y39.760
G1 X54.299 Y39.994
G1 X53.821 Y40.218
G1 X53.325 Y40.423
G1 X52.806 Y40.657
G1 X52.350 Y40.859
G1 X51.859 Y41.116
G1 X51.376 Y41.281
G1 X50.914 Y41.475
G1 X50.401 Y41.671
G1 X49.934 Y41.828
G1 X49.425 Y42.008
G1 X48.918 Y42.098
G1 X48.448 Y42.273
G1 X47.928 Y42.381
G1 X47.469 Y42.447
G1 X46.960 Y42.503
G1 X46.488 Y42.509
G1 X46.018 Y42.497
G1 X45.506 Y42.446
G1 X44.977 Y42.405
G1 X44.521 Y42.272
G1 X43.988 Y42.107
G1 X43.534 Y42.007
G1 X43.048 Y41.828
G1 X42.547 Y41.669
G1 X42.068 Y41.475
G1 X41.558 Y41.279
G1 X41.017 Y41.080
G1 X40.569 Y40.856
G1 X40.096 Y40.640
G1 X39.579 Y40.420
G1 X39.065 Y40.222
G1 X38.590 Y39.990
G1 X38.074 Y39.806
G1 X37.601 Y39.587
G1 X37.127 Y39.417
G1 X36.613 Y39.229
; Path 60
G0 Z0
G0 X45.039 Y46.626
G0 Z2.2
G1 F3000
G1 X47.944 Y48.224
; Path 61
G0 Z0
G0 X48.083 Y43.733
G0 Z2.2
G1 F3000
G1 X51.162 Y44.241
; Path 62
G0 Z0
G0 X61.943 Y62.092
G0 Z2.2
G1 F3000
G1 X62.234 Y62.472
G1 X62.460 Y62.894
G1 X62.771 Y63.283
G1 X63.143 Y63.684
G1 X63.560 Y64.099
G1 X63.921 Y64.467
G1 X64.330 Y64.828
G1 X64.723 Y65.249
G1 X65.094 Y65.638
G1 X65.477 Y66.034
G1 X65.833 Y66.457
G1 X66.113 Y66.827
G1 X66.360 Y67.196
G1 X66.559 Y67.634
G1 X66.667 Y68.069
G1 X66.744 Y68.460
G1 X66.692 Y68.883
G1 X66.598 Y69.309
G1 X66.324 Y69.780
G1 X66.049 Y70.187
G1 X65.548 Y70.659
G1 X65.049 Y71.097
G1 X64.389 Y71.592
G1 X63.647 Y72.036
G1 X62.780 Y72.538
G1 X61.913 Y72.998
G1 X60.953 Y73.487
G1 X59.918 Y73.979
G1 X58.869 Y74.436
G1 X57.733 Y74.973
G1 X56.567 Y75.453
G1 X55.430 Y75.976
G1 X54.217 Y76.441
G1 X53.080 Y76.982
G1 X51.946 Y77.503
G1 X50.753 Y77.986
G1 X49.669 Y78.503
G1 X48.521 Y78.984
G1 X47.520 Y79.483
G1 X46.455 Y79.970
G0 Z0
M5
G4 P0.3
G0 X0 Y0
; End